{"version": 0.6, "generator": "Overpass API 0.7.59 e21c39fe", "osm3s": {"timestamp_osm_base": "2023-01-30T18:53:38Z", "copyright": "The data included in this document is from www.openstreetmap.org. The data is made available under ODbL."}, "elements": [{"type": "node", "id": 2595752505, "lat": -23.9961334, "lon": -46.2590496, "tags": {"amenity": "bank", "atm": "yes", "brand": "Caixa Econ\u00f4mica Federal", "brand:wikidata": "Q835283", "brand:wikipedia": "pt:Caixa Econ\u00f4mica Federal", "name": "Caixa Econ\u00f4mica Federal"}}, {"type": "node", "id": 2816972816, "lat": -23.9922737, "lon": -46.2582991, "tags": {"amenity": "fast_food", "brand": "McDonald's", "brand:wikidata": "Q38076", "brand:wikipedia": "en:McDonald's", "cuisine": "burger", "drive_through": "yes", "name": "McDonald's", "opening_hours": "24/7", "takeaway": "yes"}}, {"type": "node", "id": 4586971477, "lat": -23.9957995, "lon": -46.2593574, "tags": {"entrance": "main"}}, {"type": "node", "id": 4586971481, "lat": -23.9955463, "lon": -46.2593955}, {"type": "node", "id": 4586971482, "lat": -23.9957522, "lon": -46.2592667}, {"type": "node", "id": 4586971483, "lat": -23.995845, "lon": -46.2594447}, {"type": "node", "id": 4586971484, "lat": -23.9956392, "lon": -46.2595734}, {"type": "node", "id": 4783247388, "lat": -23.9945039, "lon": -46.2574878}, {"type": "node", "id": 4783247389, "lat": -23.9948017, "lon": -46.2573016}, {"type": "node", "id": 4783247390, "lat": -23.9947455, "lon": -46.257194}, {"type": "node", "id": 4783247391, "lat": -23.9944477, "lon": -46.2573802}, {"type": "node", "id": 5360000853, "lat": -23.9933165, "lon": -46.256973}, {"type": "node", "id": 5360000854, "lat": -23.993206, "lon": -46.2570426}, {"type": "node", "id": 5360000855, "lat": -23.9931333, "lon": -46.2569479}, {"type": "node", "id": 5360000856, "lat": -23.9931888, "lon": -46.2570535}, {"type": "node", "id": 5360000857, "lat": -23.9933766, "lon": -46.256935}, {"type": "node", "id": 5360000858, "lat": -23.9933211, "lon": -46.2568295}, {"type": "node", "id": 5360000859, "lat": -23.9933479, "lon": -46.2573122}, {"type": "node", "id": 5360000860, "lat": -23.9934583, "lon": -46.2572426}, {"type": "node", "id": 8660653345, "lat": -23.9955797, "lon": -46.2567335, "tags": {"amenity": "fast_food", "branch": "Guaruj\u00e1", "brand": "Burger King", "brand:wikidata": "Q177054", "brand:wikipedia": "en:Burger King", "cuisine": "burger", "drive_through": "yes", "name": "Burger King", "takeaway": "yes", "website": "https://www.burgerking.com.br/"}}, {"type": "node", "id": 8660653346, "lat": -23.9955359, "lon": -46.2568622}, {"type": "node", "id": 8660653347, "lat": -23.9954281, "lon": -46.2566891}, {"type": "node", "id": 8660653348, "lat": -23.9955844, "lon": -46.2565849}, {"type": "node", "id": 8660653349, "lat": -23.9956976, "lon": -46.2567894}, {"type": "node", "id": 8660717930, "lat": -23.994831, "lon": -46.2567571}, {"type": "node", "id": 8660717931, "lat": -23.9950435, "lon": -46.2566306}, {"type": "node", "id": 8660717932, "lat": -23.9949012, "lon": -46.2563438}, {"type": "node", "id": 8660717933, "lat": -23.9949548, "lon": -46.2562783}, {"type": "node", "id": 8660717934, "lat": -23.9948104, "lon": -46.2560253}, {"type": "node", "id": 8660717935, "lat": -23.9946412, "lon": -46.2561225}, {"type": "node", "id": 8660717936, "lat": -23.9947547, "lon": -46.2563393}, {"type": "node", "id": 8660717937, "lat": -23.9946432, "lon": -46.2564161}, {"type": "node", "id": 8660717947, "lat": -23.9926644, "lon": -46.2540016}, {"type": "node", "id": 8660717948, "lat": -23.9929884, "lon": -46.253778}, {"type": "node", "id": 8660717949, "lat": -23.9928584, "lon": -46.253568}, {"type": "node", "id": 8660717950, "lat": -23.9926995, "lon": -46.2535996}, {"type": "node", "id": 8660717951, "lat": -23.9923116, "lon": -46.2535883}, {"type": "node", "id": 8660717952, "lat": -23.9922723, "lon": -46.2536335}, {"type": "node", "id": 8660717953, "lat": -23.9923879, "lon": -46.2538706}, {"type": "node", "id": 8660717954, "lat": -23.9924931, "lon": -46.2540536}, {"type": "node", "id": 8660717955, "lat": -23.992522, "lon": -46.2540965}, {"type": "node", "id": 8714150977, "lat": -23.9935783, "lon": -46.2568306, "tags": {"addr:city": "Guaruj\u00e1", "addr:housenumber": "633", "addr:postcode": "11410-150", "addr:street": "Rua Washington", "addr:suburb": "Vila Maia (Centro)", "air_conditioning": "yes", "amenity": "bank", "atm": "yes", "brand": "Santander", "brand:wikidata": "Q5835668", "brand:wikipedia": "en:Santander Bank", "name": "Santander", "opening_hours:covid19": "open", "operator": "Santander", "parking": "yes", "wheelchair": "yes"}}, {"type": "node", "id": 8714150978, "lat": -23.993986, "lon": -46.2576664}, {"type": "node", "id": 8714150979, "lat": -23.9943483, "lon": -46.257437}, {"type": "node", "id": 8714150980, "lat": -23.9944523, "lon": -46.2576344}, {"type": "node", "id": 8714150981, "lat": -23.9943694, "lon": -46.2576913}, {"type": "node", "id": 8714150982, "lat": -23.9943515, "lon": -46.2576789}, {"type": "node", "id": 8714150983, "lat": -23.9940737, "lon": -46.2578496}, {"type": "node", "id": 8714150984, "lat": -23.9931705, "lon": -46.2584097}, {"type": "node", "id": 8714150985, "lat": -23.9938707, "lon": -46.2579509}, {"type": "node", "id": 8714150986, "lat": -23.9937862, "lon": -46.2577873}, {"type": "node", "id": 8714150987, "lat": -23.9930795, "lon": -46.2582248}, {"type": "node", "id": 8714151001, "lat": -23.9937918, "lon": -46.2548637}, {"type": "node", "id": 8714151002, "lat": -23.994016, "lon": -46.254725}, {"type": "node", "id": 8714151003, "lat": -23.9941557, "lon": -46.2546574}, {"type": "node", "id": 8714151004, "lat": -23.9943409, "lon": -46.2550415}, {"type": "node", "id": 8714151005, "lat": -23.9940258, "lon": -46.255294}, {"type": "way", "id": 463431073, "nodes": [4586971484, 4586971481, 4586971482, 4586971477, 4586971483, 4586971484], "tags": {"addr:city": "Guaruj\u00e1", "addr:country": "BR", "addr:housenumber": "628", "addr:street": "Avenida Leomil", "amenity": "place_of_worship", "building": "synagogue", "name": "\u05d1\u05d9\u05ea \u05d9\u05e2\u05e7\u05d1", "religion": "jewish"}}, {"type": "way", "id": 485545460, "nodes": [4783247388, 4783247389, 4783247390, 4783247391, 4783247388], "tags": {"addr:city": "Guaruj\u00e1", "addr:housenumber": "255", "addr:postcode": "11410-001", "addr:street": "Avenida Puglisi", "addr:suburb": "Pitangueiras", "amenity": "fast_food", "brand": "Habib's", "brand:wikidata": "Q2504930", "brand:wikipedia": "en:Habib's", "building": "yes", "cuisine": "middle_eastern", "drive_through": "yes", "name": "Habib's", "opening_hours": "24/7", "phone": "+55 13 3387-1020", "takeaway": "yes"}}, {"type": "way", "id": 555578158, "nodes": [5360000858, 5360000857, 5360000853, 5360000860, 5360000859, 5360000854, 5360000856, 5360000855, 5360000858], "tags": {"amenity": "place_of_worship", "building": "church", "denomination": "catholic", "name": "Igreja Matriz (Nossa Senhora de F\u00e1tima e Santo Amaro)", "religion": "christian"}}, {"type": "way", "id": 934484021, "nodes": [8660653346, 8660653347, 8660653348, 8660653349, 8660653346], "tags": {"air_conditioning": "yes", "amenity": "fast_food", "branch": "Guaruj\u00e1", "brand": "Burger King", "brand:wikidata": "Q177054", "brand:wikipedia": "en:Burger King", "building": "yes", "cuisine": "burger", "drive_through": "yes", "name": "Burger King", "takeaway": "yes", "website": "https://www.burgerking.com.br/", "wheelchair": "limited"}}, {"type": "way", "id": 934494444, "nodes": [8660717930, 8660717931, 8660717932, 8660717933, 8660717934, 8660717935, 8660717936, 8660717937, 8660717930], "tags": {"amenity": "school", "name": "E.E. Vicente de Carvalho", "operator": "Estado de S\u00e3o Paulo", "operator:type": "public"}}, {"type": "way", "id": 934494446, "nodes": [8660717947, 8660717948, 8660717949, 8660717950, 8660717951, 8660717952, 8660717953, 8660717954, 8660717955, 8660717947], "tags": {"addr:city": "Guaruj\u00e1", "addr:housenumber": "20", "addr:street": "Av. Artur Costa Filho", "addr:suburb": "Vila Maia", "amenity": "university", "internet_access": "wlan", "name": "Col\u00e9gio e Centro Universit\u00e1rio Don Dom\u00eanico", "operator:type": "private", "website": "http://www.dondomenico.com.br/"}}, {"type": "way", "id": 940912592, "nodes": [8714150978, 8714150979, 8714150980, 8714150981, 8714150982, 8714150983, 8714150978], "tags": {"addr:city": "Guaruj\u00e1", "addr:housenumber": "315", "addr:postcode": "11410-001", "addr:street": "Avenida Puglisi", "addr:suburb": "Centro", "air_conditioning": "yes", "amenity": "bank", "atm": "yes", "brand": "Bradesco", "brand:wikidata": "Q806181", "brand:wikipedia": "en:Banco Bradesco", "building": "yes", "name": "Bradesco", "opening_hours:covid19": "open", "wheelchair": "yes"}}, {"type": "way", "id": 940912593, "nodes": [8714150984, 8714150985, 8714150986, 8714150987, 8714150984], "tags": {"addr:city": "Guaruj\u00e1", "addr:housenumber": "391", "addr:postcode": "11410-001", "addr:street": "Avenida Puglisi", "addr:suburb": "Centro", "air_conditioning": "yes", "amenity": "bank", "atm": "yes", "brand": "Ita\u00fa Unibanco", "brand:wikidata": "Q1424293", "brand:wikipedia": "pt:Ita\u00fa Unibanco", "building": "yes", "name": "Ita\u00fa", "opening_hours:covid19": "open", "operator": "Ita\u00fa Unibanco", "parking": "yes", "wheelchair": "yes"}}, {"type": "way", "id": 940912601, "nodes": [8714151001, 8714151002, 8714151003, 8714151004, 8714151005, 8714151001], "tags": {"addr:city": "Guaruj\u00e1", "addr:housenumber": "131", "addr:postcode": "11410-160", "addr:street": "Avenida Leomil", "addr:suburb": "Centro", "air_conditioning": "yes", "amenity": "school", "grades": "Ensino Fundamental II e M\u00e9dio", "name": "E. E. Prof\u00aa Raquel de Castro Ferreira", "operator": "Goverdo do Estado de S\u00e3o Paulo", "operator:type": "public", "website": "http://www.educacao.sp.gov.br/cgrh/escolas/raquel-de-castro-ferreira-professora/", "wheelchair": "yes"}}]}