{"version": 0.6, "generator": "Overpass API 0.7.59 e21c39fe", "osm3s": {"timestamp_osm_base": "2023-01-01T22:35:54Z", "copyright": "The data included in this document is from www.openstreetmap.org. The data is made available under ODbL."}, "elements": [{"type": "node", "id": 4997736043, "lat": -23.3789739, "lon": -46.3260621}, {"type": "node", "id": 4997736044, "lat": -23.3789937, "lon": -46.3260066}, {"type": "node", "id": 4997736045, "lat": -23.3788759, "lon": -46.3259957}, {"type": "node", "id": 4997736046, "lat": -23.3789012, "lon": -46.3260571}, {"type": "node", "id": 6715924882, "lat": -23.3779535, "lon": -46.3253214}, {"type": "node", "id": 6715924883, "lat": -23.378, "lon": -46.3253229}, {"type": "node", "id": 6715924884, "lat": -23.3780451, "lon": -46.3253251}, {"type": "node", "id": 6715988785, "lat": -23.3780567, "lon": -46.3250423}, {"type": "node", "id": 6715988786, "lat": -23.3781349, "lon": -46.3250461}, {"type": "node", "id": 6715988787, "lat": -23.3781228, "lon": -46.3253407}, {"type": "node", "id": 6715988788, "lat": -23.3782161, "lon": -46.3253453}, {"type": "node", "id": 6715988789, "lat": -23.3782277, "lon": -46.3250641}, {"type": "node", "id": 6715988790, "lat": -23.3782652, "lon": -46.325066}, {"type": "node", "id": 6715988791, "lat": -23.3782538, "lon": -46.3253427}, {"type": "node", "id": 6715988792, "lat": -23.378359, "lon": -46.3253479}, {"type": "node", "id": 6715988793, "lat": -23.3783757, "lon": -46.3249455}, {"type": "node", "id": 6715988794, "lat": -23.3782665, "lon": -46.3249402}, {"type": "node", "id": 6715988795, "lat": -23.3782639, "lon": -46.3250042}, {"type": "node", "id": 6715988796, "lat": -23.3782291, "lon": -46.3250024}, {"type": "node", "id": 6715988797, "lat": -23.3782316, "lon": -46.3249404}, {"type": "node", "id": 6715988798, "lat": -23.3781834, "lon": -46.324938}, {"type": "node", "id": 6715988799, "lat": -23.3781748, "lon": -46.3249152}, {"type": "node", "id": 6715988800, "lat": -23.3781356, "lon": -46.3249139}, {"type": "node", "id": 6715988801, "lat": -23.3781332, "lon": -46.3250001}, {"type": "node", "id": 6715988802, "lat": -23.3780669, "lon": -46.3249979}, {"type": "node", "id": 6715988803, "lat": -23.3780692, "lon": -46.3249178}, {"type": "node", "id": 6715988804, "lat": -23.377965, "lon": -46.3249143}, {"type": "node", "id": 6715988808, "lat": -23.37796, "lon": -46.3250403}, {"type": "node", "id": 6715988809, "lat": -23.3779617, "lon": -46.3249907}, {"type": "node", "id": 8886446578, "lat": -23.380507, "lon": -46.3286154}, {"type": "node", "id": 8886446579, "lat": -23.3805068, "lon": -46.3285626}, {"type": "node", "id": 8886446580, "lat": -23.3802699, "lon": -46.3285636}, {"type": "node", "id": 8886446581, "lat": -23.380284, "lon": -46.3286163}, {"type": "node", "id": 8907497946, "lat": -23.3786961, "lon": -46.3252804}, {"type": "node", "id": 8907497947, "lat": -23.3787565, "lon": -46.3252857}, {"type": "node", "id": 8907497948, "lat": -23.3787631, "lon": -46.3251932}, {"type": "node", "id": 8907497949, "lat": -23.378781, "lon": -46.3251896}, {"type": "node", "id": 8907497950, "lat": -23.3787778, "lon": -46.3249992}, {"type": "node", "id": 8907497951, "lat": -23.3787124, "lon": -46.3249903}, {"type": "node", "id": 8907497953, "lat": -23.3795781, "lon": -46.3252199}, {"type": "node", "id": 8907497954, "lat": -23.3795928, "lon": -46.3250081}, {"type": "node", "id": 8907497955, "lat": -23.379663, "lon": -46.3250099}, {"type": "node", "id": 8907497956, "lat": -23.3796598, "lon": -46.3251362}, {"type": "node", "id": 8907497957, "lat": -23.3796761, "lon": -46.3251362}, {"type": "node", "id": 8907497958, "lat": -23.3796663, "lon": -46.3252181}, {"type": "node", "id": 8907497960, "lat": -23.3791159, "lon": -46.3258234}, {"type": "node", "id": 8907497961, "lat": -23.3792678, "lon": -46.3258323}, {"type": "node", "id": 8907497962, "lat": -23.3792825, "lon": -46.3256828}, {"type": "node", "id": 8907497963, "lat": -23.3791176, "lon": -46.3256757}, {"type": "node", "id": 8907497966, "lat": -23.3793103, "lon": -46.3254497}, {"type": "node", "id": 8907497967, "lat": -23.3793805, "lon": -46.3254604}, {"type": "node", "id": 8907497968, "lat": -23.379392, "lon": -46.3252824}, {"type": "node", "id": 8907497969, "lat": -23.3793217, "lon": -46.325286}, {"type": "node", "id": 8907497972, "lat": -23.3793887, "lon": -46.3257913}, {"type": "node", "id": 8907497973, "lat": -23.3794557, "lon": -46.3257967}, {"type": "node", "id": 8907497974, "lat": -23.3794622, "lon": -46.3256757}, {"type": "node", "id": 8907497975, "lat": -23.3793952, "lon": -46.3256757}, {"type": "node", "id": 8907497976, "lat": -23.3794612, "lon": -46.3256663}, {"type": "node", "id": 8907497977, "lat": -23.3794641, "lon": -46.3256249}, {"type": "node", "id": 8907497978, "lat": -23.3793625, "lon": -46.3256165}, {"type": "node", "id": 8907497979, "lat": -23.3793596, "lon": -46.3256579}, {"type": "node", "id": 8907497981, "lat": -23.3799081, "lon": -46.3257113}, {"type": "node", "id": 8907497982, "lat": -23.3799097, "lon": -46.3256454}, {"type": "node", "id": 8907497983, "lat": -23.379993, "lon": -46.3256472}, {"type": "node", "id": 8907497984, "lat": -23.3799898, "lon": -46.3257273}, {"type": "node", "id": 8907497985, "lat": -23.3799914, "lon": -46.3258874}, {"type": "node", "id": 8907497986, "lat": -23.3801596, "lon": -46.3258963}, {"type": "node", "id": 8907497987, "lat": -23.3801809, "lon": -46.325649}, {"type": "node", "id": 8907497988, "lat": -23.3800077, "lon": -46.3256436}, {"type": "node", "id": 8907497989, "lat": -23.3800343, "lon": -46.3255043}, {"type": "node", "id": 8907497990, "lat": -23.3800809, "lon": -46.3255044}, {"type": "node", "id": 8907497991, "lat": -23.3800816, "lon": -46.3252662}, {"type": "node", "id": 8907497992, "lat": -23.380035, "lon": -46.3252661}, {"type": "node", "id": 8907512906, "lat": -23.3812442, "lon": -46.3258323}, {"type": "node", "id": 8907512907, "lat": -23.3813438, "lon": -46.325834}, {"type": "node", "id": 8907512908, "lat": -23.3813471, "lon": -46.3257807}, {"type": "node", "id": 8907512909, "lat": -23.3813242, "lon": -46.3257789}, {"type": "node", "id": 8907512910, "lat": -23.3813307, "lon": -46.325697}, {"type": "node", "id": 8907512911, "lat": -23.3812817, "lon": -46.3256881}, {"type": "node", "id": 8907512912, "lat": -23.3812817, "lon": -46.3257469}, {"type": "node", "id": 8907512913, "lat": -23.3812393, "lon": -46.3257735}, {"type": "node", "id": 8907525817, "lat": -23.3809714, "lon": -46.3258305}, {"type": "node", "id": 8907525818, "lat": -23.3810392, "lon": -46.3258332}, {"type": "node", "id": 8907525819, "lat": -23.3810416, "lon": -46.3257614}, {"type": "node", "id": 8907525820, "lat": -23.3809738, "lon": -46.3257586}, {"type": "node", "id": 8907525822, "lat": -23.3809698, "lon": -46.3255458}, {"type": "node", "id": 8907525823, "lat": -23.3810171, "lon": -46.3255476}, {"type": "node", "id": 8907525824, "lat": -23.3810286, "lon": -46.3254426}, {"type": "node", "id": 8907525825, "lat": -23.380973, "lon": -46.3254372}, {"type": "node", "id": 8907553932, "lat": -23.3834771, "lon": -46.3256249}, {"type": "node", "id": 8907553933, "lat": -23.3836707, "lon": -46.3256348}, {"type": "node", "id": 8907553934, "lat": -23.3836844, "lon": -46.3254412}, {"type": "node", "id": 8907553935, "lat": -23.3834748, "lon": -46.3254263}, {"type": "node", "id": 8907553937, "lat": -23.383484, "lon": -46.3253593}, {"type": "node", "id": 8907553938, "lat": -23.3837231, "lon": -46.3253593}, {"type": "node", "id": 8907553939, "lat": -23.3837095, "lon": -46.3254759}, {"type": "node", "id": 8907553940, "lat": -23.383682, "lon": -46.3254752}, {"type": "node", "id": 8907553941, "lat": -23.3835402, "lon": -46.3260891}, {"type": "node", "id": 8907553942, "lat": -23.383546, "lon": -46.3258638}, {"type": "node", "id": 8907553943, "lat": -23.383622, "lon": -46.3258662}, {"type": "node", "id": 8907553944, "lat": -23.3836162, "lon": -46.3260914}, {"type": "node", "id": 8907553945, "lat": -23.3834475, "lon": -46.32595}, {"type": "node", "id": 8907553946, "lat": -23.3834566, "lon": -46.3258706}, {"type": "node", "id": 8907553947, "lat": -23.3835067, "lon": -46.3258755}, {"type": "node", "id": 8907553948, "lat": -23.3835022, "lon": -46.3259649}, {"type": "way", "id": 510803913, "nodes": [4997736043, 4997736044, 4997736045, 4997736046, 4997736043], "tags": {"addr:city": "Aruj\u00e1", "addr:housenumber": "111", "addr:postcode": "07400-000", "addr:street": "Avenida Ra\u00edlda Alves de Oliveira", "addr:suburb": "Parque Rodrigo Barreto", "amenity": "place_of_worship", "building": "church", "denomination": "roman_catholic", "email": "nossasenhoraaparecida.paroquia@gmail.com", "name": "Par\u00f3quia Nossa Senhora Aparecida", "phone": "+55 11 4653 5625", "religion": "christian", "service_times": "Su 08:00,19:00; We 19:30; Th[1]19:00; Sa[3]!9:00", "start_date": "2011-02-03", "website": "http://www.diocesedemogi.org.br/paroquias_pagina.php?id=68"}}, {"type": "way", "id": 714470172, "nodes": [6715924882, 6715924883, 6715924884, 6715988785, 6715988786, 6715988787, 6715988788, 6715988789, 6715988790, 6715988791, 6715988792, 6715988793, 6715988794, 6715988795, 6715988796, 6715988797, 6715988798, 6715988799, 6715988800, 6715988801, 6715988802, 6715988803, 6715988804, 6715988809, 6715988808, 6715924882], "tags": {"building": "yes"}}, {"type": "way", "id": 960605951, "nodes": [8886446578, 8886446579, 8886446580, 8886446581, 8886446578], "tags": {"building": "roof"}}, {"type": "way", "id": 962939334, "nodes": [8907497946, 8907497947, 8907497948, 8907497949, 8907497950, 8907497951, 8907497946], "tags": {"building": "yes"}}, {"type": "way", "id": 962939335, "nodes": [8907497953, 8907497954, 8907497955, 8907497956, 8907497957, 8907497958, 8907497953], "tags": {"addr:housenumber": "805A", "addr:street": "Avenida Ant\u00f4nio Armando Justi\u00e7a", "addr:suburb": "Parque Rodrigo Barreto", "building": "yes", "contact:mobile": "+55 81 98245 1293", "name": "Consult\u00f3rio Espiritual Babalorixa Pai Ant\u00f4nio Espirita", "office": "religion", "phone": "+55 11 99935 1293", "religion": "candombl\u00e9"}}, {"type": "way", "id": 962939336, "nodes": [8907497960, 8907497961, 8907497962, 8907497963, 8907497960], "tags": {"addr:street": "Avenida Doutor Armando Col\u00e2ngelo", "addr:suburb": "Parque Rodrigo Barreto", "building": "apartments", "building:levels": "2"}}, {"type": "way", "id": 962939337, "nodes": [8907497966, 8907497967, 8907497968, 8907497969, 8907497966], "tags": {"addr:street": "Avenida Doutor Armando Col\u00e2ngelo", "addr:suburb": "Parque Rodrigo Barreto", "amenity": "pharmacy", "building": "yes", "dispensing": "yes", "healthcare": "pharmacy"}}, {"type": "way", "id": 962939338, "nodes": [8907497972, 8907497973, 8907497974, 8907497975, 8907497972], "tags": {"addr:street": "Avenida Doutor Armando Col\u00e2ngelo", "addr:suburb": "Parque Rodrigo Barreto", "building": "yes"}}, {"type": "way", "id": 962939339, "nodes": [8907497976, 8907497977, 8907497978, 8907497979, 8907497976], "tags": {"building": "roof"}}, {"type": "way", "id": 962939340, "nodes": [8907497981, 8907497982, 8907497983, 8907497984, 8907497981], "tags": {"addr:street": "Avenida Doutor Armando Col\u00e2ngelo", "addr:suburb": "Parque Rodrigo Barreto", "building": "yes", "shop": "gas"}}, {"type": "way", "id": 962939341, "nodes": [8907497985, 8907497986, 8907497987, 8907497988, 8907497985], "tags": {"addr:street": "Avenida Doutor Armando Col\u00e2ngelo", "addr:suburb": "Parque Rodrigo Barreto", "building": "yes", "name": "Irm\u00e3os Silva Supermercados", "shop": "supermarket"}}, {"type": "way", "id": 962939342, "nodes": [8907497989, 8907497990, 8907497991, 8907497992, 8907497989], "tags": {"addr:housenumber": "1982a", "addr:street": "Avenida Doutor Armando Col\u00e2ngelo", "alt_name": "Adipo", "amenity": "place_of_worship", "building": "yes", "denomination": "neo-pentecostal", "name": "Assembl\u00e9ia de Deus Nipo Brasileira", "religion": "christian"}}, {"type": "way", "id": 962942018, "nodes": [8907525817, 8907525818, 8907525819, 8907525820, 8907525817], "tags": {"building": "apartments"}}, {"type": "way", "id": 962942019, "nodes": [8907525822, 8907525823, 8907525824, 8907525825, 8907525822], "tags": {"addr:housenumber": "1870", "addr:street": "Avenida Doutor Armando Col\u00e2ngelo", "addr:suburb": "Parque Rodrigo Barreto", "building": "yes", "name": "Rei da \u00c1gua", "shop": "trade", "trade": "water"}}, {"type": "way", "id": 962945140, "nodes": [8907512906, 8907512907, 8907512908, 8907512909, 8907512910, 8907512911, 8907512912, 8907512913, 8907512906], "tags": {"addr:street": "Avenida Doutor Armando Col\u00e2ngelo", "addr:suburb": "Parque Rodrigo Barreto", "building": "yes", "name": "Adega Aruj\u00e1", "shop": "beverages"}}, {"type": "way", "id": 962945143, "nodes": [8907553932, 8907553933, 8907553940, 8907553934, 8907553935, 8907553932], "tags": {"addr:housenumber": "1584", "addr:street": "Avenida Doutor Armando Col\u00e2ngelo", "addr:suburb": "Parque Rodrigo Barreto", "building": "yes", "government": "administrative", "name": "Sub-Prefeitura Regional do Barreto", "office": "government", "phone": "+55 11 4653 6621"}}, {"type": "way", "id": 962945144, "nodes": [8907553935, 8907553937, 8907553938, 8907553939, 8907553940, 8907553934, 8907553935], "tags": {"addr:street": "Avenida Doutor Armando Col\u00e2ngelo", "addr:suburb": "Parque Rodrigo Barreto", "building": "yes", "office": "government"}}, {"type": "way", "id": 962945145, "nodes": [8907553941, 8907553942, 8907553943, 8907553944, 8907553941], "tags": {"addr:housenumber": "1579", "addr:postcode": "07417-180", "addr:street": "Avenida Doutor Armando Col\u00e2ngelo", "addr:suburb": "Parque Rodrigo Barreto", "building": "yes", "name": "Mattos Auto Center", "service:vehicle:car_repair": "yes", "service:vehicle:inspection": "yes", "service:vehicle:oil_change": "yes", "service:vehicle:tires": "yes", "shop": "car_repair"}}, {"type": "way", "id": 962945146, "nodes": [8907553945, 8907553946, 8907553947, 8907553948, 8907553945], "tags": {"addr:street": "Avenida Doutor Armando Col\u00e2ngelo", "addr:suburb": "Parque Rodrigo Barreto", "building": "yes", "email": "autocenterdimas@gmail.com", "name": "Dimas Centro Automotivo", "phone": "+55 11 4680 9487", "service:vehicle:brakes": "yes", "service:vehicle:car_repair": "yes", "service:vehicle:inspection": "yes", "service:vehicle:oil_change": "yes", "shop": "car_repair"}}]}