{"version": 0.6, "generator": "Overpass API 0.7.59 e21c39fe", "osm3s": {"timestamp_osm_base": "2023-01-30T19:02:53Z", "copyright": "The data included in this document is from www.openstreetmap.org. The data is made available under ODbL."}, "elements": [{"type": "node", "id": 2390144442, "lat": -23.5090149, "lon": -46.6239274}, {"type": "node", "id": 2390144443, "lat": -23.5090321, "lon": -46.6222593}, {"type": "node", "id": 2390144451, "lat": -23.5089577, "lon": -46.6222584}, {"type": "node", "id": 2390144457, "lat": -23.5085514, "lon": -46.6230275}, {"type": "node", "id": 2390144460, "lat": -23.5089205, "lon": -46.6239262}, {"type": "node", "id": 2390144469, "lat": -23.5089588, "lon": -46.6221573}, {"type": "node", "id": 2390144481, "lat": -23.5085604, "lon": -46.6221524}, {"type": "node", "id": 3250909784, "lat": -23.5113546, "lon": -46.6227461}, {"type": "node", "id": 3250909785, "lat": -23.51133, "lon": -46.6221855}, {"type": "node", "id": 3250909786, "lat": -23.510843, "lon": -46.6222391}, {"type": "node", "id": 3250909787, "lat": -23.5108283, "lon": -46.6227756}, {"type": "node", "id": 3361687518, "lat": -23.50839, "lon": -46.6246167}, {"type": "node", "id": 4831672531, "lat": -23.5110865, "lon": -46.6221828}, {"type": "node", "id": 4831710898, "lat": -23.5078304, "lon": -46.6207329}, {"type": "node", "id": 4831710899, "lat": -23.5079436, "lon": -46.6192764}, {"type": "node", "id": 4831710900, "lat": -23.5092841, "lon": -46.6191182}, {"type": "node", "id": 4831710901, "lat": -23.5091389, "lon": -46.621036}, {"type": "node", "id": 4831710905, "lat": -23.507994, "lon": -46.6209649}, {"type": "node", "id": 4831710906, "lat": -23.5079946, "lon": -46.6207523}, {"type": "node", "id": 6460876259, "lat": -23.5066256, "lon": -46.6223943}, {"type": "node", "id": 6460876260, "lat": -23.5069284, "lon": -46.6223576}, {"type": "node", "id": 6460876261, "lat": -23.5069206, "lon": -46.6223003}, {"type": "node", "id": 6460876262, "lat": -23.5066175, "lon": -46.6223473}, {"type": "node", "id": 6460876263, "lat": -23.5067687, "lon": -46.6223238}, {"type": "node", "id": 6460876264, "lat": -23.5086465, "lon": -46.6221408}, {"type": "node", "id": 6460876265, "lat": -23.5089283, "lon": -46.6221129}, {"type": "node", "id": 6460876266, "lat": -23.5089393, "lon": -46.622073}, {"type": "node", "id": 6460876267, "lat": -23.508641, "lon": -46.6221069}, {"type": "node", "id": 6751133436, "lat": -23.5070907, "lon": -46.6190727}, {"type": "node", "id": 6751133437, "lat": -23.5071114, "lon": -46.6191546}, {"type": "node", "id": 6751133438, "lat": -23.5069845, "lon": -46.6191928}, {"type": "node", "id": 6751133439, "lat": -23.5069638, "lon": -46.6191109}, {"type": "node", "id": 6751133440, "lat": -23.5070623, "lon": -46.6189822}, {"type": "node", "id": 6751133441, "lat": -23.5070419, "lon": -46.6189068}, {"type": "node", "id": 6751133442, "lat": -23.5071669, "lon": -46.6188666}, {"type": "node", "id": 6751133443, "lat": -23.5071874, "lon": -46.618942}, {"type": "node", "id": 6751700180, "lat": -23.5085209, "lon": -46.6228047}, {"type": "node", "id": 6751700181, "lat": -23.5084386, "lon": -46.6228021}, {"type": "node", "id": 6751700182, "lat": -23.5085392, "lon": -46.6221204}, {"type": "node", "id": 6751700183, "lat": -23.509073, "lon": -46.6221374}, {"type": "node", "id": 6751700184, "lat": -23.5090062, "lon": -46.6246363}, {"type": "node", "id": 6751700185, "lat": -23.5089297, "lon": -46.6230321}, {"type": "node", "id": 8902094517, "lat": -23.509275, "lon": -46.6189908, "tags": {"addr:street": "Rua Ant\u00f4nio dos Santos Neto", "amenity": "hospital", "name": "Centro Hospitalar do Sistema Penitenci\u00e1rio CHSP"}}, {"type": "node", "id": 8945027117, "lat": -23.5092468, "lon": -46.6190531, "tags": {"addr:street": "Rua Ant\u00f4nio dos Santos Neto", "amenity": "hospital", "name": "CHSP", "name:pt": "Centro Hospitalar do sistema penitenci\u00e1rio- CHSP"}}, {"type": "way", "id": 230516525, "nodes": [2390144457, 6751700185, 2390144460, 2390144442, 2390144443, 2390144451, 2390144469, 2390144481, 2390144457], "tags": {"access": "private", "amenity": "parking", "parking": "surface"}}, {"type": "way", "id": 318719197, "nodes": [3250909784, 3250909785, 4831672531, 3250909786, 3250909787, 3250909784], "tags": {"addr:city": "S\u00e3o Paulo", "addr:street": "Avenida Zaki Narchi", "addr:suburb": "Santana", "amenity": "ranger_station", "name": "Estacionamento DEIC", "operator": "SSP"}}, {"type": "way", "id": 491005029, "nodes": [4831710898, 4831710899, 4831710900, 4831710901, 4831710905, 4831710906, 4831710898], "tags": {"addr:city": "S\u00e3o Paulo", "addr:postcode": "02029-001", "addr:street": "Avenida Zaki Narchi", "addr:suburb": "Carandiru", "amenity": "prison", "email": "pfcapital@pfc.sap.sp.gov.br", "name": "Penit\u00eanci\u00e1ria Feminina da Capital"}}, {"type": "way", "id": 688813179, "nodes": [6460876259, 6460876260, 6460876261, 6460876263, 6460876262, 6460876259], "tags": {"amenity": "toilets", "building": "yes"}}, {"type": "way", "id": 688813180, "nodes": [6460876264, 6460876265, 6460876266, 6460876267, 6460876264], "tags": {"amenity": "toilets", "building": "yes"}}, {"type": "way", "id": 688813185, "nodes": [6751133439, 6751133436, 6751133437, 6751133438, 6751133439], "tags": {"amenity": "toilets", "female": "yes"}}, {"type": "way", "id": 688813186, "nodes": [6751133440, 6751133441, 6751133442, 6751133443, 6751133440], "tags": {"amenity": "toilets", "male": "yes"}}, {"type": "way", "id": 719092110, "nodes": [3361687518, 6751700181, 6751700180, 6751700182, 6751700183, 6751700184, 3361687518], "tags": {"addr:city": "S\u00e3o Paulo", "addr:housenumber": "2630", "addr:postcode": "02030-100", "addr:street": "Avenida Cruzeiro do Sul", "addr:suburb": "Santana", "amenity": "college", "name": "ETEC Parque da Juventude", "operator": "CSA Paula Souza", "website": "http://www.etecparquedajuventude.com.br/"}}]}