{"version": 0.6, "generator": "Overpass API 0.7.59 e21c39fe", "osm3s": {"timestamp_osm_base": "2023-01-30T18:59:54Z", "copyright": "The data included in this document is from www.openstreetmap.org. The data is made available under ODbL."}, "elements": [{"type": "node", "id": 2906986800, "lat": -23.6502222, "lon": -46.8528247, "tags": {"access": "yes", "amenity": "toilets", "drinking_water": "yes", "fee": "no", "toilets:disposal": "flush", "toilets:position": "seated;urinal", "wheelchair": "yes"}}, {"type": "node", "id": 2994697155, "lat": -23.6477025, "lon": -46.8514413}, {"type": "node", "id": 2994697157, "lat": -23.6478228, "lon": -46.8516351}, {"type": "node", "id": 2994697159, "lat": -23.6478512, "lon": -46.8513155}, {"type": "node", "id": 2994697165, "lat": -23.6479649, "lon": -46.8518815}, {"type": "node", "id": 2994697168, "lat": -23.6479566, "lon": -46.850676}, {"type": "node", "id": 2994697169, "lat": -23.6479792, "lon": -46.8514914}, {"type": "node", "id": 2994697170, "lat": -23.6479607, "lon": -46.8505394}, {"type": "node", "id": 2994697173, "lat": -23.6480348, "lon": -46.8516055}, {"type": "node", "id": 2994697174, "lat": -23.6480362, "lon": -46.8519139}, {"type": "node", "id": 2994697175, "lat": -23.6480386, "lon": -46.8516879}, {"type": "node", "id": 2994697176, "lat": -23.6480151, "lon": -46.8506371}, {"type": "node", "id": 2994697178, "lat": -23.6481004, "lon": -46.85097}, {"type": "node", "id": 2994697179, "lat": -23.6480882, "lon": -46.8515535}, {"type": "node", "id": 2994697180, "lat": -23.6481235, "lon": -46.8510082}, {"type": "node", "id": 2994697182, "lat": -23.6481111, "lon": -46.8516988}, {"type": "node", "id": 2994697183, "lat": -23.64811, "lon": -46.8517202}, {"type": "node", "id": 2994697184, "lat": -23.6481413, "lon": -46.8510377}, {"type": "node", "id": 2994697185, "lat": -23.6481015, "lon": -46.8504459}, {"type": "node", "id": 2994697186, "lat": -23.648102, "lon": -46.8509368}, {"type": "node", "id": 2994697187, "lat": -23.6481645, "lon": -46.8516467}, {"type": "node", "id": 2994697189, "lat": -23.6481282, "lon": -46.8506124}, {"type": "node", "id": 2994697192, "lat": -23.6481764, "lon": -46.8505804}, {"type": "node", "id": 2994697193, "lat": -23.648253, "lon": -46.8508364}, {"type": "node", "id": 2994697195, "lat": -23.6483568, "lon": -46.8508024}, {"type": "node", "id": 2994697196, "lat": -23.6483667, "lon": -46.850893}, {"type": "node", "id": 2994697197, "lat": -23.6484088, "lon": -46.8508808}, {"type": "node", "id": 2994697198, "lat": -23.6484918, "lon": -46.8508186}, {"type": "node", "id": 2994697199, "lat": -23.6485971, "lon": -46.8512162}, {"type": "node", "id": 2994697200, "lat": -23.6487111, "lon": -46.8511242}, {"type": "node", "id": 2995105411, "lat": -23.6506265, "lon": -46.8528382, "tags": {"addr:city": "Embu das Artes", "addr:country": "BR", "addr:housenumber": "50", "addr:street": "Rua Domingos de Pascoal", "amenity": "bank", "atm": "yes", "brand": "Banco do Brasil", "brand:wikidata": "Q610817", "brand:wikipedia": "en:Banco do Brasil", "name": "Banco do Brasil", "opening_hours": "24/7", "operator": "Banco do Brasil"}}, {"type": "node", "id": 2995105650, "lat": -23.6484472, "lon": -46.851748}, {"type": "node", "id": 2995105651, "lat": -23.6484798, "lon": -46.8517863}, {"type": "node", "id": 2995105652, "lat": -23.6485034, "lon": -46.8518141}, {"type": "node", "id": 2995105654, "lat": -23.648724, "lon": -46.851398}, {"type": "node", "id": 2995105656, "lat": -23.6486322, "lon": -46.8519374}, {"type": "node", "id": 2995105658, "lat": -23.6487764, "lon": -46.851456}, {"type": "node", "id": 2995105659, "lat": -23.6486648, "lon": -46.8519757, "tags": {"access": "permissive", "barrier": "gate"}}, {"type": "node", "id": 2995105660, "lat": -23.6486884, "lon": -46.8520035}, {"type": "node", "id": 2995105662, "lat": -23.6490162, "lon": -46.8514272}, {"type": "node", "id": 2995105663, "lat": -23.6491837, "lon": -46.8516576}, {"type": "node", "id": 2995105667, "lat": -23.6508531, "lon": -46.852661}, {"type": "node", "id": 2995105669, "lat": -23.6509104, "lon": -46.8528041}, {"type": "node", "id": 2995105671, "lat": -23.650923, "lon": -46.8527872}, {"type": "node", "id": 2995105673, "lat": -23.650973, "lon": -46.8529294}, {"type": "node", "id": 2995105675, "lat": -23.6510222, "lon": -46.8525432}, {"type": "node", "id": 2995105677, "lat": -23.6510645, "lon": -46.8527618}, {"type": "node", "id": 2995105679, "lat": -23.6511092, "lon": -46.8528398}, {"type": "node", "id": 2995105681, "lat": -23.6511211, "lon": -46.8527235}, {"type": "node", "id": 3116004444, "lat": -23.65041, "lon": -46.852993}, {"type": "node", "id": 3116004445, "lat": -23.6506436, "lon": -46.8532744}, {"type": "node", "id": 3116004446, "lat": -23.6506981, "lon": -46.8532206}, {"type": "node", "id": 3116004447, "lat": -23.650774, "lon": -46.853312}, {"type": "node", "id": 3116004448, "lat": -23.6508264, "lon": -46.8532603}, {"type": "node", "id": 3116004449, "lat": -23.6505168, "lon": -46.8528873}, {"type": "node", "id": 3246172586, "lat": -23.6515492, "lon": -46.8511996}, {"type": "node", "id": 3246172591, "lat": -23.6515755, "lon": -46.8511265}, {"type": "node", "id": 3246172604, "lat": -23.6519097, "lon": -46.8518596}, {"type": "node", "id": 3246172609, "lat": -23.6519653, "lon": -46.8506847}, {"type": "node", "id": 3246172612, "lat": -23.6519982, "lon": -46.8507296}, {"type": "node", "id": 3246172616, "lat": -23.6520445, "lon": -46.8506658}, {"type": "node", "id": 3246172620, "lat": -23.6521393, "lon": -46.8516459}, {"type": "node", "id": 3246172623, "lat": -23.6521286, "lon": -46.8515985}, {"type": "node", "id": 3246172647, "lat": -23.6524735, "lon": -46.8512341, "tags": {"barrier": "lift_gate"}}, {"type": "node", "id": 3246172649, "lat": -23.6525343, "lon": -46.8511672}, {"type": "node", "id": 3246183092, "lat": -23.6492341, "lon": -46.8517969, "tags": {"amenity": "restaurant", "cuisine": "regional", "name": "Per Quilo"}}, {"type": "node", "id": 3246183095, "lat": -23.6488825, "lon": -46.8517752}, {"type": "node", "id": 3246183096, "lat": -23.6489173, "lon": -46.8516185}, {"type": "node", "id": 3246183097, "lat": -23.6489313, "lon": -46.8515551}, {"type": "node", "id": 3246183099, "lat": -23.6489991, "lon": -46.8516531}, {"type": "node", "id": 3246183101, "lat": -23.649097, "lon": -46.8517578}, {"type": "node", "id": 3246183104, "lat": -23.6491586, "lon": -46.8516311}, {"type": "node", "id": 3246183105, "lat": -23.6491724, "lon": -46.8516707}, {"type": "node", "id": 3246183106, "lat": -23.6491845, "lon": -46.8515971}, {"type": "node", "id": 3246238182, "lat": -23.649235, "lon": -46.8522708, "tags": {"addr:city": "Embu das Artes", "addr:country": "BR", "addr:housenumber": "29", "addr:state": "S\u00e3o Paulo", "addr:street": "Rua Largo 21 de Abril", "amenity": "arts_centre", "name": "Centro Cultural Mestre Assis do Embu 29", "phone": "+55 11 4781-4462"}}, {"type": "node", "id": 3246238183, "lat": -23.6494233, "lon": -46.8520388, "tags": {"addr:city": "Embu das Artes", "addr:country": "BR", "addr:housenumber": "11", "addr:state": "S\u00e3o Paulo", "addr:street": "Rua Marechal Isidoro Lopes", "amenity": "bank", "atm": "yes", "brand": "Bradesco", "brand:wikidata": "Q806181", "brand:wikipedia": "en:Banco Bradesco", "name": "Bradesco"}}, {"type": "node", "id": 3246238184, "lat": -23.6493214, "lon": -46.8521878, "tags": {"addr:city": "Embu das Artes", "addr:country": "BR", "addr:housenumber": "35/41", "addr:state": "S\u00e3o Paulo", "addr:street": "Rua Largo 21 de Abril", "amenity": "bank", "atm": "yes", "brand": "Ita\u00fa Unibanco", "brand:wikidata": "Q1424293", "name": "Ita\u00fa", "operator": "Ita\u00fa"}}, {"type": "node", "id": 7164334831, "lat": -23.6502097, "lon": -46.8529054}, {"type": "node", "id": 7164334832, "lat": -23.6502351, "lon": -46.8529345}, {"type": "node", "id": 7164334833, "lat": -23.6502879, "lon": -46.8528796}, {"type": "node", "id": 7164334834, "lat": -23.6502625, "lon": -46.8528505}, {"type": "node", "id": 7164334835, "lat": -23.6502703, "lon": -46.8528328}, {"type": "node", "id": 7164334836, "lat": -23.6502923, "lon": -46.8528542}, {"type": "node", "id": 7164334837, "lat": -23.650312, "lon": -46.85283}, {"type": "node", "id": 7164334838, "lat": -23.65029, "lon": -46.8528086}, {"type": "node", "id": 7164334839, "lat": -23.6502758, "lon": -46.8527831}, {"type": "node", "id": 7164334840, "lat": -23.6502944, "lon": -46.8527577}, {"type": "node", "id": 7164334841, "lat": -23.6502477, "lon": -46.8527169}, {"type": "node", "id": 7164334842, "lat": -23.6502291, "lon": -46.8527423}, {"type": "node", "id": 10032521797, "lat": -23.6477413, "lon": -46.8535738}, {"type": "node", "id": 10032521798, "lat": -23.6483573, "lon": -46.8538978}, {"type": "node", "id": 10032521799, "lat": -23.6486138, "lon": -46.8537725}, {"type": "node", "id": 10032521800, "lat": -23.6489181, "lon": -46.853989}, {"type": "node", "id": 10032521801, "lat": -23.648655, "lon": -46.8533055}, {"type": "node", "id": 10032521802, "lat": -23.6479307, "lon": -46.8534061}, {"type": "node", "id": 10032521804, "lat": -23.6485784, "lon": -46.8533239}, {"type": "node", "id": 10032521805, "lat": -23.6482471, "lon": -46.8534065}, {"type": "node", "id": 10032521807, "lat": -23.6487746, "lon": -46.8535846}, {"type": "node", "id": 10032521808, "lat": -23.6486895, "lon": -46.8534133}, {"type": "node", "id": 10032529695, "lat": -23.6478979, "lon": -46.8531716}, {"type": "node", "id": 10032529696, "lat": -23.648147, "lon": -46.8531618}, {"type": "node", "id": 10032529697, "lat": -23.648141, "lon": -46.8529225}, {"type": "node", "id": 10032529698, "lat": -23.6479173, "lon": -46.8529339}, {"type": "node", "id": 10032529699, "lat": -23.6479128, "lon": -46.8528964}, {"type": "node", "id": 10032529700, "lat": -23.6477606, "lon": -46.8529029}, {"type": "node", "id": 10032529701, "lat": -23.6477591, "lon": -46.8529371}, {"type": "node", "id": 10032529702, "lat": -23.6478069, "lon": -46.8529485}, {"type": "node", "id": 10032529703, "lat": -23.6478099, "lon": -46.8530544}, {"type": "node", "id": 10032529704, "lat": -23.6478427, "lon": -46.8530641}, {"type": "node", "id": 10034698863, "lat": -23.6525915, "lon": -46.8506379}, {"type": "node", "id": 10034698864, "lat": -23.6526719, "lon": -46.8504185}, {"type": "node", "id": 10034698865, "lat": -23.6522699, "lon": -46.8502345}, {"type": "node", "id": 10034698866, "lat": -23.652199, "lon": -46.8504707}, {"type": "node", "id": 10036491967, "lat": -23.6477022, "lon": -46.8520446}, {"type": "node", "id": 10036491968, "lat": -23.647735, "lon": -46.8519551}, {"type": "node", "id": 10036491969, "lat": -23.6479379, "lon": -46.8520674}, {"type": "node", "id": 10036491970, "lat": -23.6478917, "lon": -46.8521309}, {"type": "node", "id": 10036491971, "lat": -23.6478723, "lon": -46.8521879}, {"type": "way", "id": 295717098, "nodes": [2994697157, 2994697169, 2994697159, 2994697155, 2994697157], "tags": {"addr:city": "Embu das Artes", "amenity": "bank", "atm": "yes", "brand": "Caixa Econ\u00f4mica Federal", "brand:wikidata": "Q835283", "building": "yes", "name": "Caixa Econ\u00f4mica Federal", "operator": "Caixa Econ\u00f4mica Federal"}}, {"type": "way", "id": 295717099, "nodes": [2994697174, 2994697183, 2994697175, 2994697165, 2994697174], "tags": {"addr:street": "Rua Rio Grande do Norte", "amenity": "fuel", "building": "roof", "name": "Terrana", "self_service": "no"}}, {"type": "way", "id": 295717100, "nodes": [2994697182, 2994697173, 2994697179, 2994697187, 2994697182], "tags": {"addr:street": "Rua Paulo do Vale", "amenity": "fuel", "building": "roof", "name": "Terrana", "self_service": "no"}}, {"type": "way", "id": 295717102, "nodes": [2994697186, 2994697168, 2994697176, 2994697170, 2994697185, 2994697192, 2994697189, 2994697193, 2994697186], "tags": {"addr:street": "Rua Paulo do Vale", "addr:suburb": "Centro Hist\u00f3rico", "amenity": "place_of_worship", "building": "church", "denomination": "neo-pentecostal", "name": "Igreja Mundial do Poder de Deus", "religion": "christian"}}, {"type": "way", "id": 295717108, "nodes": [2994697199, 2994697200, 2994697198, 2994697197, 2994697195, 2994697178, 2994697180, 2994697184, 2994697196, 2994697199], "tags": {"access": "yes", "addr:city": "Embu das Artes", "addr:housenumber": "50", "addr:street": "Rua da Emancipa\u00e7\u00e3o", "amenity": "parking", "fee": "yes", "lit": "no", "maxstay": "0", "name": "Estacionamento Vai Vai", "parking": "surface", "supervised": "yes", "surface": "unpaved"}}, {"type": "way", "id": 295755732, "nodes": [2995105673, 2995105669, 2995105671, 2995105667, 2995105675, 2995105681, 2995105677, 2995105679, 2995105673], "tags": {"addr:city": "Embu das Artes", "addr:country": "BR", "addr:housenumber": "29", "addr:street": "Rua Noua Nossa Senhora do Ros\u00e1rio", "addr:suburb": "Centro Hist\u00f3rico", "amenity": "bank", "atm": "yes", "brand": "Bradesco", "brand:wikidata": "Q806181", "brand:wikipedia": "en:Banco Bradesco", "building": "yes", "name": "Bradesco", "opening_hours": "24/7", "operator": "Bradesco"}}, {"type": "way", "id": 295755734, "nodes": [2995105660, 3246183095, 3246183099, 3246183101, 3246183105, 2995105663, 3246183104, 3246183106, 2995105662, 3246183097, 3246183096, 2995105656, 2995105659, 2995105660], "tags": {"access": "yes", "addr:city": "Embu das Artes", "addr:country": "BR", "addr:housenumber": "76", "addr:street": "Rua da Emancipa\u00e7\u00e3o", "amenity": "parking", "fee": "yes", "park_ride": "no", "parking": "surface", "supervised": "yes", "surface": "paved"}}, {"type": "way", "id": 295755735, "nodes": [2995105652, 2995105658, 2995105654, 2995105650, 2995105651, 2995105652], "tags": {"access": "yes", "addr:city": "Embu das Artes", "addr:country": "BR", "addr:housenumber": "112", "addr:street": "Rua da Emancipa\u00e7\u00e3o", "amenity": "parking", "fee": "yes", "park_ride": "no", "parking": "surface", "supervised": "yes", "surface": "paved"}}, {"type": "way", "id": 306628026, "nodes": [3116004444, 3116004445, 3116004446, 3116004447, 3116004448, 3116004449, 3116004444], "tags": {"amenity": "place_of_worship", "building": "church", "denomination": "roman_catholic", "name": "Par\u00f3quia Nossa Senhora do Ros\u00e1rio", "religion": "christian"}}, {"type": "way", "id": 318221338, "nodes": [3246172604, 3246172586, 3246172591, 3246172609, 3246172612, 3246172616, 3246172649, 3246172647, 3246172623, 3246172620, 3246172604], "tags": {"access": "customers", "amenity": "parking", "fee": "no", "lit": "no", "park_ride": "no", "parking": "surface", "supervised": "no", "surface": "asphalt"}}, {"type": "way", "id": 767315578, "nodes": [7164334831, 7164334832, 7164334833, 7164334834, 7164334831], "tags": {"amenity": "toilets", "building": "yes", "changing_table": "yes", "female": "yes", "wheelchair": "no"}}, {"type": "way", "id": 767315579, "nodes": [7164334835, 7164334836, 7164334837, 7164334838, 7164334835], "tags": {"amenity": "toilets", "building": "yes", "unisex": "yes", "wheelchair": "yes"}}, {"type": "way", "id": 767315580, "nodes": [7164334839, 7164334840, 7164334841, 7164334842, 7164334839], "tags": {"amenity": "toilets", "building": "yes", "male": "yes", "wheelchair": "no"}}, {"type": "way", "id": 1095504787, "nodes": [10032529695, 10032529696, 10032529697, 10032529698, 10032529699, 10032529700, 10032529701, 10032529702, 10032529703, 10032529704, 10032529695], "tags": {"addr:housenumber": "142", "addr:street": "Rua Andr\u00f4nico dos Prazeres Gon\u00e7alves", "addr:suburb": "Centro", "amenity": "restaurant", "building": "yes", "name": "Restaurante Popular de Embu das Artes Josu\u00e9 de Castro", "opening_hours": "Mo-Fr 11:00-14:00; Sa,Su,PH off", "operator": "Secretaria de Desenvolvimento Social"}}, {"type": "way", "id": 1095508132, "nodes": [10032521797, 10032521798, 10032521799, 10032521800, 10032521807, 10032521808, 10032521801, 10032521804, 10032521805, 10032521802, 10032521797], "tags": {"addr:street": "Rua Andr\u00f4nico dos Prazeres Gon\u00e7alves", "addr:suburb": "Centro", "amenity": "restaurant", "cuisine": "regional", "name": "Portal Sul Costaleria"}}, {"type": "way", "id": 1095698198, "nodes": [10034698863, 10034698864, 10034698865, 10034698866, 10034698863], "tags": {"addr:housenumber": "2500", "addr:postcode": "06803-135", "addr:street": "Avenida Elias Yazbek", "addr:suburb": "Embuema", "amenity": "clinic", "healthcare": "clinic", "healthcare:speciality": "general;paediatrics;vaccination;gynaecology", "name": "Unidade B\u00e1sica de Sa\u00fade de Emb\u00fa", "opening_hours": "Mo-Fr 07:00-19:00; Sa,Su,PH off", "ref": "CNES-2786400", "source": "CNES"}}, {"type": "way", "id": 1095919341, "nodes": [10036491967, 10036491968, 10036491969, 10036491970, 10036491971, 10036491967], "tags": {"amenity": "place_of_worship", "building": "yes", "religion": "christian"}}]}