{"version": 0.6, "generator": "Overpass API 0.7.59 e21c39fe", "osm3s": {"timestamp_osm_base": "2023-01-30T19:04:52Z", "copyright": "The data included in this document is from www.openstreetmap.org. The data is made available under ODbL."}, "elements": [{"type": "node", "id": 7128823874, "lat": -23.4551639, "lon": -46.6935788}, {"type": "node", "id": 7128823875, "lat": -23.4551852, "lon": -46.6934837}, {"type": "node", "id": 7128823876, "lat": -23.455277, "lon": -46.693441}, {"type": "node", "id": 7128823877, "lat": -23.4554341, "lon": -46.6934829}, {"type": "node", "id": 7128823878, "lat": -23.455413, "lon": -46.6935769}, {"type": "node", "id": 7128823879, "lat": -23.4552611, "lon": -46.6935364}, {"type": "node", "id": 7128823880, "lat": -23.4552467, "lon": -46.6936009}, {"type": "node", "id": 7128823883, "lat": -23.4553914, "lon": -46.6936714}, {"type": "node", "id": 7128823884, "lat": -23.455117, "lon": -46.6938186}, {"type": "node", "id": 7128868185, "lat": -23.4552966, "lon": -46.6936565}, {"type": "node", "id": 7128868186, "lat": -23.4552663, "lon": -46.6938468}, {"type": "node", "id": 7128868187, "lat": -23.4553368, "lon": -46.6938737}, {"type": "node", "id": 7128868188, "lat": -23.4551138, "lon": -46.6938521}, {"type": "node", "id": 7128868190, "lat": -23.4552933, "lon": -46.6937635, "tags": {"addr:city": "S\u00e3o Paulo", "addr:housenumber": "3436", "addr:postcode": "02856-024", "addr:street": "Avenida Deputado Cant\u00eddio Sampaio", "addr:suburb": "Jardim Princesa", "amenity": "childcare", "name": "CEI Mundo de Sofia"}}, {"type": "node", "id": 7128868191, "lat": -23.4552997, "lon": -46.6937219, "tags": {"addr:city": "S\u00e3o Paulo", "addr:housenumber": "3440", "addr:postcode": "02856-024", "addr:street": "Avenida Deputado Cant\u00eddio Sampaio", "addr:suburb": "Jardim Princesa", "amenity": "dentist", "healthcare": "dentist", "name": "Cover Odonto", "phone": "+55 11 3921-1833"}}, {"type": "node", "id": 7128868192, "lat": -23.4553047, "lon": -46.6936812, "tags": {"addr:city": "S\u00e3o Paulo", "addr:housenumber": "3430", "addr:postcode": "02856-024", "addr:street": "Avenida Deputado Cant\u00eddio Sampaio", "addr:suburb": "Jardim Princesa", "amenity": "pharmacy", "dispensing": "yes", "healthcare": "pharmacy", "name": "Droga Lema"}}, {"type": "node", "id": 7128868193, "lat": -23.4553458, "lon": -46.6938401, "tags": {"addr:city": "S\u00e3o Paulo", "addr:housenumber": "3450", "addr:postcode": "02856-024", "addr:street": "Avenida Deputado Cant\u00eddio Sampaio", "addr:suburb": "Jardim Princesa"}}, {"type": "node", "id": 7128868194, "lat": -23.4553637, "lon": -46.6937742, "tags": {"addr:city": "S\u00e3o Paulo", "addr:housenumber": "3436", "addr:postcode": "02856-024", "addr:street": "Avenida Deputado Cant\u00eddio Sampaio", "addr:suburb": "Jardim Princesa"}}, {"type": "node", "id": 7128868195, "lat": -23.455375, "lon": -46.693732, "tags": {"addr:city": "S\u00e3o Paulo", "addr:housenumber": "3440", "addr:postcode": "02856-024", "addr:street": "Avenida Deputado Cant\u00eddio Sampaio", "addr:suburb": "Jardim Princesa"}}, {"type": "node", "id": 7128868196, "lat": -23.455386, "lon": -46.6936913, "tags": {"addr:city": "S\u00e3o Paulo", "addr:housenumber": "3430", "addr:postcode": "02856-024", "addr:street": "Avenida Deputado Cant\u00eddio Sampaio", "addr:suburb": "Jardim Princesa"}}, {"type": "way", "id": 762910186, "nodes": [7128823874, 7128823875, 7128823876, 7128823877, 7128823878, 7128823879, 7128823880, 7128823874], "tags": {"addr:city": "S\u00e3o Paulo", "addr:housenumber": "3420", "addr:postcode": "02856-024", "addr:street": "Avenida Deputado Cant\u00eddio Sampaio", "addr:suburb": "Jardim Princesa", "amenity": "fuel", "brand": "Shell", "brand:wikidata": "Q154950", "brand:wikipedia": "en:Royal Dutch Shell", "building": "roof", "height": "5.5", "name": "Shell"}}, {"type": "way", "id": 762910189, "nodes": [7128823884, 7128868186, 7128868185, 7128823883, 7128868196, 7128868195, 7128868194, 7128868193, 7128868187, 7128868188, 7128823884], "tags": {"access": "customers", "amenity": "parking"}}]}