{"version": 0.6, "generator": "Overpass API 0.7.59 e21c39fe", "osm3s": {"timestamp_osm_base": "2023-01-30T21:17:54Z", "copyright": "The data included in this document is from www.openstreetmap.org. The data is made available under ODbL."}, "elements": [{"type": "node", "id": 8359226884, "lat": -23.4297449, "lon": -47.4154377}, {"type": "node", "id": 8359226885, "lat": -23.4299715, "lon": -47.4159542}, {"type": "node", "id": 8359226888, "lat": -23.4300175, "lon": -47.415478}, {"type": "node", "id": 8359226891, "lat": -23.429331, "lon": -47.4158855}, {"type": "node", "id": 8751555001, "lat": -23.4273214, "lon": -47.4141863}, {"type": "node", "id": 8751555002, "lat": -23.4274068, "lon": -47.4142146}, {"type": "node", "id": 8751555003, "lat": -23.4274614, "lon": -47.4140193}, {"type": "node", "id": 8751555004, "lat": -23.4273759, "lon": -47.4139909}, {"type": "way", "id": 899689463, "nodes": [8359226891, 8359226885, 8359226888, 8359226884, 8359226891], "tags": {"amenity": "public_building", "building": "yes", "name": "Corpo de Bombeiros - \u00c8den"}}, {"type": "way", "id": 945316690, "nodes": [8751555001, 8751555002, 8751555003, 8751555004, 8751555001], "tags": {"addr:city": "Sorocaba", "addr:housenumber": "75", "addr:postcode": "18103-545", "addr:street": "Rua Rosinha Salerno", "addr:suburb": "Jardim Carolina", "building": "yes", "internet_access": "wlan", "internet_access:fee": "customers", "name": "Pousada Canto do Sul", "phone": "+55 15 98153-8977", "tourism": "hotel", "wheelchair": "limited"}}]}