{"version": 0.6, "generator": "Overpass API 0.7.59 e21c39fe", "osm3s": {"timestamp_osm_base": "2023-01-30T20:07:43Z", "copyright": "The data included in this document is from www.openstreetmap.org. The data is made available under ODbL."}, "elements": [{"type": "node", "id": 2775944189, "lat": -23.5308428, "lon": -46.4449803, "tags": {"addr:city": "S\u00e3o Paulo", "addr:housenumber": "1074", "addr:postcode": "08215-263", "addr:street": "Rua Augusto Carlos Bauman", "entrance": "service"}}, {"type": "node", "id": 3775883720, "lat": -23.5295494, "lon": -46.4435094}, {"type": "node", "id": 3775883721, "lat": -23.5296193, "lon": -46.4432985}, {"type": "node", "id": 3775883722, "lat": -23.5294755, "lon": -46.4434015}, {"type": "node", "id": 3775883723, "lat": -23.5296875, "lon": -46.4434105}, {"type": "node", "id": 4404622289, "lat": -23.5313599, "lon": -46.4456157}, {"type": "node", "id": 4404622290, "lat": -23.531396, "lon": -46.4455967}, {"type": "node", "id": 4404622291, "lat": -23.5313679, "lon": -46.445572}, {"type": "node", "id": 4404622292, "lat": -23.5313452, "lon": -46.445588}, {"type": "node", "id": 5443581548, "lat": -23.5306708, "lon": -46.4437432}, {"type": "node", "id": 5443581549, "lat": -23.5310324, "lon": -46.4438211}, {"type": "node", "id": 5443581551, "lat": -23.5309364, "lon": -46.443088}, {"type": "node", "id": 5443581552, "lat": -23.5310471, "lon": -46.4428493}, {"type": "node", "id": 5443581553, "lat": -23.5310901, "lon": -46.4427362}, {"type": "node", "id": 5443581555, "lat": -23.5316301, "lon": -46.4433842}, {"type": "node", "id": 5443581556, "lat": -23.5313354, "lon": -46.4424481}, {"type": "node", "id": 5443581557, "lat": -23.5314859, "lon": -46.4425156}, {"type": "node", "id": 5443581558, "lat": -23.5319081, "lon": -46.4431899}, {"type": "node", "id": 5878698930, "lat": -23.5304999, "lon": -46.4444093}, {"type": "node", "id": 5878698931, "lat": -23.5312696, "lon": -46.4438595}, {"type": "node", "id": 5878698932, "lat": -23.5317467, "lon": -46.4446539}, {"type": "node", "id": 5878698933, "lat": -23.5309769, "lon": -46.4452037}, {"type": "node", "id": 5886429437, "lat": -23.5295081, "lon": -46.4434551}, {"type": "node", "id": 5887250299, "lat": -23.5295102, "lon": -46.4434593}, {"type": "node", "id": 5887250300, "lat": -23.5295162, "lon": -46.4434549}, {"type": "node", "id": 6835262180, "lat": -23.5312822, "lon": -46.4436362}, {"type": "node", "id": 6835262181, "lat": -23.5309495, "lon": -46.4430665}, {"type": "node", "id": 6835262182, "lat": -23.5312897, "lon": -46.4436307}, {"type": "node", "id": 6835262183, "lat": -23.5311725, "lon": -46.4426313}, {"type": "node", "id": 6835262184, "lat": -23.5309592, "lon": -46.4430592}, {"type": "node", "id": 6835316085, "lat": -23.5311787, "lon": -46.4426273}, {"type": "node", "id": 6835316086, "lat": -23.5316363, "lon": -46.4433802}, {"type": "way", "id": 374197862, "nodes": [3775883722, 3775883721, 3775883723, 3775883720, 5887250300, 5887250299, 5886429437, 3775883722], "tags": {"addr:city": "S\u00e3o Paulo", "addr:housenumber": "265", "addr:postcode": "08247-001", "addr:street": "Rua Dam\u00e1sio Pinto", "amenity": "fuel", "brand": "Ipiranga", "building": "roof", "height": "5.639", "phone": "+55 11 3429-4415", "roof:material": "metal", "source": "pmsp"}}, {"type": "way", "id": 442806014, "nodes": [4404622289, 4404622290, 4404622291, 4404622292, 4404622289], "tags": {"addr:city": "Sao paulo", "addr:housenumber": "288", "addr:postcode": "08210-540", "addr:street": "Rua Doutor Rodrigo Pereira Barreto", "addr:suburb": "itaquera", "amenity": "restaurant", "building": "yes", "capacity": "100 200", "delivery": "yes", "name": "Espetinho Churoot\u00b4s", "opening_hours": "15:00-22:00", "smoking": "no"}}, {"type": "way", "id": 565130769, "nodes": [5443581548, 5443581549, 6835262180, 5443581551, 5443581548], "tags": {"addr:city": "S\u00e3o Paulo", "addr:street": "Estrada Itaquera-Guaianazes", "amenity": "police", "name": "3\u00aa Companhia de Radio Patrulhamento", "operator": "Policia Militar"}}, {"type": "way", "id": 565130770, "nodes": [6835262182, 6835262181, 6835262184, 5443581552, 5443581553, 6835262183, 5443581555, 6835262182], "tags": {"addr:housenumber": "395", "addr:street": "Rua Ant\u00f4nio Moura Andrade", "amenity": "school", "name": "Escola Municipal de Educa\u00e7\u00e3o Infantil Ant\u00f4nio Gon\u00e7alves Dias", "phone": "+55 11 2205-0986;+55 11 2205-9184", "short_name": "EMEI Ant\u00f4nio Gon\u00e7alves Dias"}}, {"type": "way", "id": 565130771, "nodes": [6835316085, 5443581556, 5443581557, 5443581558, 6835316086, 6835316085], "tags": {"addr:housenumber": "89", "addr:street": "Rua Sebasti\u00e3o Medeiros da Silva", "amenity": "school", "name": "Escola Municipal de Educa\u00e7\u00e3o Fundamental J\u00falio C\u00e9sar de Melo e Sousa Malba Tahan", "phone": "+55 11 2205-5110", "short_name": "EMEF J\u00falio C\u00e9sar de Melo e Sousa Malba Tahan"}}, {"type": "way", "id": 622379738, "nodes": [5878698933, 2775944189, 5878698930, 5878698931, 5878698932, 5878698933], "tags": {"addr:city": "S\u00e3o Paulo", "addr:housenumber": "1074", "addr:postcode": "08215-263", "addr:street": "Rua Augusto Carlos Bauman", "amenity": "hospital", "emergency": "yes", "name": "Hospital Municipal Professor Doutor Waldomiro de Paula", "phone": "+55 11 3394-8990"}}]}