{"version": 0.6, "generator": "Overpass API 0.7.59 e21c39fe", "osm3s": {"timestamp_osm_base": "2023-01-30T20:11:55Z", "copyright": "The data included in this document is from www.openstreetmap.org. The data is made available under ODbL."}, "elements": [{"type": "node", "id": 2061038415, "lat": -23.9737538, "lon": -46.3024596, "tags": {"amenity": "place_of_worship", "name": "Igreja Nossa Senhora Aparecida", "religion": "christian"}}, {"type": "node", "id": 2061384065, "lat": -23.9731044, "lon": -46.3032626, "tags": {"amenity": "fast_food", "cuisine": "pizza", "name": "Pizzaria Forno da Pra\u00e7a"}}, {"type": "node", "id": 2062518527, "lat": -23.9723175, "lon": -46.302582, "tags": {"addr:city": "Santos", "addr:housenumber": "630", "addr:postcode": "11025-032", "addr:street": "Rua da Liberdade", "addr:suburb": "Aparecida", "amenity": "school", "name": "Col\u00e9gio Afonso Pena"}}, {"type": "node", "id": 2062519048, "lat": -23.9699554, "lon": -46.3039266, "tags": {"amenity": "car_wash", "name": "Edinho"}}, {"type": "node", "id": 2062519051, "lat": -23.9698255, "lon": -46.304286, "tags": {"amenity": "parking", "name": "Estilo do Corpo", "parking": "surface"}}, {"type": "node", "id": 2067255475, "lat": -23.973014, "lon": -46.3028781, "tags": {"amenity": "telephone"}}, {"type": "node", "id": 3329984398, "lat": -23.9722956, "lon": -46.3046573, "tags": {"amenity": "restaurant", "cuisine": "regional,_nordestino"}}, {"type": "node", "id": 3703566343, "lat": -23.9699668, "lon": -46.3025588}, {"type": "node", "id": 3703566344, "lat": -23.9702086, "lon": -46.3022042}, {"type": "node", "id": 3703566345, "lat": -23.9701473, "lon": -46.3021542}, {"type": "node", "id": 3703566346, "lat": -23.9699056, "lon": -46.3025088}, {"type": "node", "id": 3704613680, "lat": -23.9710814, "lon": -46.3020011}, {"type": "node", "id": 3704613681, "lat": -23.9716679, "lon": -46.3019314}, {"type": "node", "id": 3704613682, "lat": -23.9716453, "lon": -46.3017043}, {"type": "node", "id": 3704613683, "lat": -23.9712483, "lon": -46.3017515}, {"type": "node", "id": 3704613684, "lat": -23.9712601, "lon": -46.3018704}, {"type": "node", "id": 3704613685, "lat": -23.9711168, "lon": -46.3018874}, {"type": "node", "id": 3704613686, "lat": -23.971124, "lon": -46.3019593}, {"type": "node", "id": 3704613687, "lat": -23.9710778, "lon": -46.3019648}, {"type": "node", "id": 3762663156, "lat": -23.9733563, "lon": -46.3027384, "tags": {"amenity": "bicycle_rental", "name": "Esta\u00e7\u00e3o 16 - Aparecida", "operator": "Bike Santos"}}, {"type": "node", "id": 4700339601, "lat": -23.972003, "lon": -46.3013322}, {"type": "node", "id": 4700339602, "lat": -23.9720465, "lon": -46.3012612}, {"type": "node", "id": 4700339603, "lat": -23.9721697, "lon": -46.3013516}, {"type": "node", "id": 4700339604, "lat": -23.9721262, "lon": -46.3014226}, {"type": "way", "id": 366380390, "nodes": [3703566343, 3703566344, 3703566345, 3703566346, 3703566343], "tags": {"amenity": "parking", "name": "Estilo do Corpo"}}, {"type": "way", "id": 366483549, "nodes": [3704613680, 3704613681, 3704613682, 3704613683, 3704613684, 3704613685, 3704613686, 3704613687, 3704613680], "tags": {"amenity": "hospital", "healthcare": "hospital", "name": "Pronto Socorro - Zona Leste", "source": "Bing;IBGE"}}, {"type": "way", "id": 476445741, "nodes": [4700339601, 4700339602, 4700339603, 4700339604, 4700339601], "tags": {"addr:city": "Santos", "addr:housenumber": "19", "addr:postcode": "11025-190", "addr:street": "Pra\u00e7a Visconde de Ouro Preto", "addr:suburb": "Estu\u00e1rio", "amenity": "social_facility", "building": "yes", "name": "Cras-ZOI - Centro de Refer\u00eancia de Assist\u00eancia Social da Zona Orla e Intermedi\u00e1ria", "phone": "+55 13 3203-2903", "social_facility": "assisted_living"}}]}