{"version": 0.6, "generator": "Overpass API 0.7.59 e21c39fe", "osm3s": {"timestamp_osm_base": "2023-01-30T21:00:39Z", "copyright": "The data included in this document is from www.openstreetmap.org. The data is made available under ODbL."}, "elements": [{"type": "node", "id": 4095682748, "lat": -23.9974558, "lon": -46.2576651, "tags": {"building": "office", "name": "Guaruj\u00e1 Praias Imobili\u00e1ria", "office": "estate_agent"}}, {"type": "node", "id": 4586971477, "lat": -23.9957995, "lon": -46.2593574, "tags": {"entrance": "main"}}, {"type": "node", "id": 4586971481, "lat": -23.9955463, "lon": -46.2593955}, {"type": "node", "id": 4586971482, "lat": -23.9957522, "lon": -46.2592667}, {"type": "node", "id": 4586971483, "lat": -23.995845, "lon": -46.2594447}, {"type": "node", "id": 4586971484, "lat": -23.9956392, "lon": -46.2595734}, {"type": "node", "id": 4692800401, "lat": -23.9949506, "lon": -46.2573064, "tags": {"building": "yes", "historic": "locomotive", "locomotive:type": "steam", "name": "Pavilh\u00e3o da Maria Fuma\u00e7a", "tourism": "attraction", "wikidata": "Q97009680"}}, {"type": "node", "id": 4693128437, "lat": -23.9976926, "lon": -46.2576218}, {"type": "node", "id": 4693128438, "lat": -23.9978829, "lon": -46.2575019}, {"type": "node", "id": 4693128439, "lat": -23.9977605, "lon": -46.2572691}, {"type": "node", "id": 4693128440, "lat": -23.9979389, "lon": -46.2571566}, {"type": "node", "id": 4693128441, "lat": -23.9976511, "lon": -46.2566123}, {"type": "node", "id": 4693128442, "lat": -23.9972867, "lon": -46.2568397}, {"type": "node", "id": 4783236790, "lat": -23.9956782, "lon": -46.2562051}, {"type": "node", "id": 4783236791, "lat": -23.9954889, "lon": -46.2558276}, {"type": "node", "id": 4783236792, "lat": -23.9958107, "lon": -46.2556344}, {"type": "node", "id": 4783236793, "lat": -23.9959999, "lon": -46.2560119}, {"type": "node", "id": 4783247388, "lat": -23.9945039, "lon": -46.2574878}, {"type": "node", "id": 4783247389, "lat": -23.9948017, "lon": -46.2573016}, {"type": "node", "id": 4783247390, "lat": -23.9947455, "lon": -46.257194}, {"type": "node", "id": 4783247391, "lat": -23.9944477, "lon": -46.2573802}, {"type": "node", "id": 5360000853, "lat": -23.9933165, "lon": -46.256973}, {"type": "node", "id": 5360000854, "lat": -23.993206, "lon": -46.2570426}, {"type": "node", "id": 5360000855, "lat": -23.9931333, "lon": -46.2569479}, {"type": "node", "id": 5360000856, "lat": -23.9931888, "lon": -46.2570535}, {"type": "node", "id": 5360000857, "lat": -23.9933766, "lon": -46.256935}, {"type": "node", "id": 5360000858, "lat": -23.9933211, "lon": -46.2568295}, {"type": "node", "id": 5360000859, "lat": -23.9933479, "lon": -46.2573122}, {"type": "node", "id": 5360000860, "lat": -23.9934583, "lon": -46.2572426}, {"type": "node", "id": 8660653346, "lat": -23.9955359, "lon": -46.2568622}, {"type": "node", "id": 8660653347, "lat": -23.9954281, "lon": -46.2566891}, {"type": "node", "id": 8660653348, "lat": -23.9955844, "lon": -46.2565849}, {"type": "node", "id": 8660653349, "lat": -23.9956976, "lon": -46.2567894}, {"type": "node", "id": 8660717938, "lat": -23.9934196, "lon": -46.2554878}, {"type": "node", "id": 8660717939, "lat": -23.9932401, "lon": -46.2552122}, {"type": "node", "id": 8660717940, "lat": -23.9934299, "lon": -46.2550903}, {"type": "node", "id": 8660717941, "lat": -23.9934753, "lon": -46.2551535}, {"type": "node", "id": 8660717942, "lat": -23.9936817, "lon": -46.2552235}, {"type": "node", "id": 8660717943, "lat": -23.9937663, "lon": -46.255341}, {"type": "node", "id": 8660717944, "lat": -23.9934898, "lon": -46.25549}, {"type": "node", "id": 8660717945, "lat": -23.9934609, "lon": -46.2554584}, {"type": "node", "id": 8714150978, "lat": -23.993986, "lon": -46.2576664}, {"type": "node", "id": 8714150979, "lat": -23.9943483, "lon": -46.257437}, {"type": "node", "id": 8714150980, "lat": -23.9944523, "lon": -46.2576344}, {"type": "node", "id": 8714150981, "lat": -23.9943694, "lon": -46.2576913}, {"type": "node", "id": 8714150982, "lat": -23.9943515, "lon": -46.2576789}, {"type": "node", "id": 8714150983, "lat": -23.9940737, "lon": -46.2578496}, {"type": "node", "id": 8714150984, "lat": -23.9931705, "lon": -46.2584097}, {"type": "node", "id": 8714150985, "lat": -23.9938707, "lon": -46.2579509}, {"type": "node", "id": 8714150986, "lat": -23.9937862, "lon": -46.2577873}, {"type": "node", "id": 8714150987, "lat": -23.9930795, "lon": -46.2582248}, {"type": "way", "id": 463431073, "nodes": [4586971484, 4586971481, 4586971482, 4586971477, 4586971483, 4586971484], "tags": {"addr:city": "Guaruj\u00e1", "addr:country": "BR", "addr:housenumber": "628", "addr:street": "Avenida Leomil", "amenity": "place_of_worship", "building": "synagogue", "name": "\u05d1\u05d9\u05ea \u05d9\u05e2\u05e7\u05d1", "religion": "jewish"}}, {"type": "way", "id": 475574884, "nodes": [4693128437, 4693128438, 4693128439, 4693128440, 4693128441, 4693128442, 4693128437], "tags": {"building": "yes"}}, {"type": "way", "id": 485543949, "nodes": [4783236790, 4783236791, 4783236792, 4783236793, 4783236790], "tags": {"addr:city": "Guaruj\u00e1", "addr:housenumber": "96", "addr:street": "Avenida Puglisi", "addr:suburb": "Pitangueiras", "brand": "P\u00e3o de A\u00e7\u00facar", "brand:wikidata": "Q3411543", "brand:wikipedia": "pt:P\u00e3o de A\u00e7\u00facar (supermercado brasileiro)", "building": "supermarket", "name": "P\u00e3o de A\u00e7\u00facar", "phone": "+55 13 3386-1003", "shop": "supermarket"}}, {"type": "way", "id": 485545460, "nodes": [4783247388, 4783247389, 4783247390, 4783247391, 4783247388], "tags": {"addr:city": "Guaruj\u00e1", "addr:housenumber": "255", "addr:postcode": "11410-001", "addr:street": "Avenida Puglisi", "addr:suburb": "Pitangueiras", "amenity": "fast_food", "brand": "Habib's", "brand:wikidata": "Q2504930", "brand:wikipedia": "en:Habib's", "building": "yes", "cuisine": "middle_eastern", "drive_through": "yes", "name": "Habib's", "opening_hours": "24/7", "phone": "+55 13 3387-1020", "takeaway": "yes"}}, {"type": "way", "id": 555578158, "nodes": [5360000858, 5360000857, 5360000853, 5360000860, 5360000859, 5360000854, 5360000856, 5360000855, 5360000858], "tags": {"amenity": "place_of_worship", "building": "church", "denomination": "catholic", "name": "Igreja Matriz (Nossa Senhora de F\u00e1tima e Santo Amaro)", "religion": "christian"}}, {"type": "way", "id": 934484021, "nodes": [8660653346, 8660653347, 8660653348, 8660653349, 8660653346], "tags": {"air_conditioning": "yes", "amenity": "fast_food", "branch": "Guaruj\u00e1", "brand": "Burger King", "brand:wikidata": "Q177054", "brand:wikipedia": "en:Burger King", "building": "yes", "cuisine": "burger", "drive_through": "yes", "name": "Burger King", "takeaway": "yes", "website": "https://www.burgerking.com.br/", "wheelchair": "limited"}}, {"type": "way", "id": 934494445, "nodes": [8660717938, 8660717939, 8660717940, 8660717941, 8660717942, 8660717943, 8660717944, 8660717945, 8660717938], "tags": {"brand": "Vivo", "brand:wikidata": "Q18301787", "brand:wikipedia": "en:Vivo (technology company)", "building": "yes", "name": "Vivo", "operator": "Grupo Telef\u00f4nica", "shop": "mobile_phone", "website": "https://www.vivo.com.br/"}}, {"type": "way", "id": 940912592, "nodes": [8714150978, 8714150979, 8714150980, 8714150981, 8714150982, 8714150983, 8714150978], "tags": {"addr:city": "Guaruj\u00e1", "addr:housenumber": "315", "addr:postcode": "11410-001", "addr:street": "Avenida Puglisi", "addr:suburb": "Centro", "air_conditioning": "yes", "amenity": "bank", "atm": "yes", "brand": "Bradesco", "brand:wikidata": "Q806181", "brand:wikipedia": "en:Banco Bradesco", "building": "yes", "name": "Bradesco", "opening_hours:covid19": "open", "wheelchair": "yes"}}, {"type": "way", "id": 940912593, "nodes": [8714150984, 8714150985, 8714150986, 8714150987, 8714150984], "tags": {"addr:city": "Guaruj\u00e1", "addr:housenumber": "391", "addr:postcode": "11410-001", "addr:street": "Avenida Puglisi", "addr:suburb": "Centro", "air_conditioning": "yes", "amenity": "bank", "atm": "yes", "brand": "Ita\u00fa Unibanco", "brand:wikidata": "Q1424293", "brand:wikipedia": "pt:Ita\u00fa Unibanco", "building": "yes", "name": "Ita\u00fa", "opening_hours:covid19": "open", "operator": "Ita\u00fa Unibanco", "parking": "yes", "wheelchair": "yes"}}]}