{"version": 0.6, "generator": "Overpass API 0.7.59 e21c39fe", "osm3s": {"timestamp_osm_base": "2023-01-30T18:53:38Z", "copyright": "The data included in this document is from www.openstreetmap.org. The data is made available under ODbL."}, "elements": [{"type": "node", "id": 6336712296, "lat": -23.5438898, "lon": -46.8810535}, {"type": "node", "id": 6336712297, "lat": -23.5442407, "lon": -46.8803298}, {"type": "node", "id": 6336712298, "lat": -23.5447214, "lon": -46.8805788}, {"type": "node", "id": 6336712299, "lat": -23.54445, "lon": -46.8813014}, {"type": "node", "id": 6338100474, "lat": -23.5413346, "lon": -46.881671}, {"type": "node", "id": 6338100475, "lat": -23.5411083, "lon": -46.881494}, {"type": "node", "id": 6338100476, "lat": -23.5410026, "lon": -46.8816469}, {"type": "node", "id": 6338100477, "lat": -23.5410795, "lon": -46.8817075}, {"type": "node", "id": 6338100478, "lat": -23.5411526, "lon": -46.8817756}, {"type": "node", "id": 6338100479, "lat": -23.5411747, "lon": -46.8817622}, {"type": "node", "id": 6338100480, "lat": -23.5412337, "lon": -46.8817971}, {"type": "node", "id": 6338100481, "lat": -23.5412829, "lon": -46.8817595}, {"type": "node", "id": 6338100482, "lat": -23.5413075, "lon": -46.8817756}, {"type": "node", "id": 6338100483, "lat": -23.5413272, "lon": -46.881781}, {"type": "node", "id": 6338100484, "lat": -23.541337, "lon": -46.8817622}, {"type": "node", "id": 6338100685, "lat": -23.541337, "lon": -46.881738}, {"type": "node", "id": 6338100686, "lat": -23.5413149, "lon": -46.8817273}, {"type": "node", "id": 6338900040, "lat": -23.5436257, "lon": -46.8832489}, {"type": "node", "id": 6338900041, "lat": -23.5436058, "lon": -46.8830436}, {"type": "node", "id": 6338900042, "lat": -23.5437431, "lon": -46.8829373}, {"type": "node", "id": 6338900043, "lat": -23.5440995, "lon": -46.8828214}, {"type": "node", "id": 6338900044, "lat": -23.5443497, "lon": -46.8828093}, {"type": "node", "id": 6338900045, "lat": -23.5446375, "lon": -46.8828214}, {"type": "node", "id": 6338900046, "lat": -23.5447062, "lon": -46.8828407}, {"type": "node", "id": 6338900047, "lat": -23.5447947, "lon": -46.8830871}, {"type": "node", "id": 6338900058, "lat": -23.5446589, "lon": -46.8828274, "tags": {"entrance": "yes"}}, {"type": "node", "id": 6338900059, "lat": -23.5442916, "lon": -46.8828122, "tags": {"entrance": "yes"}}, {"type": "node", "id": 6338900060, "lat": -23.5436238, "lon": -46.8832288, "tags": {"entrance": "yes"}}, {"type": "node", "id": 6545676628, "lat": -23.5446145, "lon": -46.880527}, {"type": "node", "id": 6790174479, "lat": -23.5401906, "lon": -46.8807388, "tags": {"addr:housenumber": "486", "addr:postcode": "06447-170", "addr:street": "Avenida Marginal Esquerda", "addr:suburb": "Jardim Paulista", "amenity": "clinic", "contact:phone": "+55 11 4199 3149", "healthcare": "clinic", "healthcare:speciality": "general;gynaecology;paediatrics", "name": "Unidade B\u00e1sica de Sa\u00fade H\u00e9lio Berzaghi", "opening_hours": "Mo-Fr 07:00-21:00; Sa,Su,PH off", "phone": "+55 11 4247 1376", "ref": "CNES-2024047", "short_name": "UBS H\u00e9lio Berzaghi", "source": "CNES"}}, {"type": "node", "id": 9147089264, "lat": -23.5410739, "lon": -46.8817217}, {"type": "node", "id": 9147089265, "lat": -23.5412742, "lon": -46.8817858}, {"type": "node", "id": 9147147647, "lat": -23.5408444, "lon": -46.8814223}, {"type": "node", "id": 9147147648, "lat": -23.5405914, "lon": -46.8812322}, {"type": "node", "id": 9147147649, "lat": -23.5406078, "lon": -46.881204}, {"type": "node", "id": 9147147650, "lat": -23.5408965, "lon": -46.8813486}, {"type": "node", "id": 9147147651, "lat": -23.5406319, "lon": -46.88117}, {"type": "node", "id": 9147147652, "lat": -23.5406465, "lon": -46.8811557}, {"type": "way", "id": 676686079, "nodes": [6336712296, 6336712297, 6545676628, 6336712298, 6336712299, 6336712296], "tags": {"addr:housenumber": "2363", "addr:postcode": "06447-010", "addr:street": "Avenida Anibal Correia", "addr:suburb": "Parque Viana", "amenity": "school", "contact:phone": "+55 11 4201 2562", "email": "emef.robertoluiz@barueri.sp.gov.br", "name": "Escola Municipal de Educa\u00e7\u00e3o Fundamental Roberto Luiz Ara\u00fajo Brand\u00e3o", "phone": "+55 11 4194 0430", "ref": "INEP-35244788"}}, {"type": "way", "id": 676847455, "nodes": [6338100474, 6338100475, 6338100476, 6338100477, 9147089264, 6338100478, 6338100479, 6338100480, 9147089265, 6338100481, 6338100482, 6338100483, 6338100484, 6338100685, 6338100686, 6338100474], "tags": {"addr:housenumber": "300", "addr:postcode": "06460-000", "addr:street": "Avenida It\u00fa", "addr:suburb": "Jardim Paulista", "amenity": "library", "building": "yes", "name": "Biblioteca Municipal Benedito Franco", "phone": "+55  11 4194 6015", "ref:isil": "ES-2892"}}, {"type": "way", "id": 676945703, "nodes": [6338900040, 6338900060, 6338900041, 6338900042, 6338900043, 6338900059, 6338900044, 6338900045, 6338900058, 6338900046, 6338900047, 6338900040], "tags": {"addr:housenumber": "103", "addr:postcode": "06447-175", "addr:street": "Rua Piratininga", "addr:suburb": "Jardim Paulista", "amenity": "school", "contact:phone": "+55 11 4194 3602", "email": "emef.deiro@barueri.sp.gov.br", "name": "Escola Municipal de Educa\u00e7\u00e3o Fundamental Reverendo Deir\u00f3 Fel\u00edcio de Andrade", "phone": "+55 11 4162 0015", "ref": "35208139"}}, {"type": "way", "id": 724003859, "nodes": [9147147649, 9147147648, 9147147647, 9147147650, 9147147652, 9147147651, 9147147649], "tags": {"addr:housenumber": "460", "addr:postcode": "06447-020", "addr:street": "Avenida Marginal Esquerda", "addr:suburb": "Jardim Itaparica", "alt_name": "Hospital do Jardim Paulista", "amenity": "hospital", "emergency": "yes", "healthcare": "hospital", "healthcare:speciality": "general", "name": "Pronto Socorro Vanderson C\u00e9sar de Almeida", "operational_status": "closed", "phone": "+55 11 3164 9591"}}]}