{"version": 0.6, "generator": "Overpass API 0.7.59 e21c39fe", "osm3s": {"timestamp_osm_base": "2023-01-30T20:07:43Z", "copyright": "The data included in this document is from www.openstreetmap.org. The data is made available under ODbL."}, "elements": [{"type": "node", "id": 1768204793, "lat": -23.5841219, "lon": -46.7382556}, {"type": "node", "id": 1768204794, "lat": -23.5841634, "lon": -46.7383339}, {"type": "node", "id": 1768204795, "lat": -23.5842365, "lon": -46.7384875}, {"type": "node", "id": 1768204796, "lat": -23.5842872, "lon": -46.738335}, {"type": "node", "id": 1768204797, "lat": -23.5842821, "lon": -46.73867}, {"type": "node", "id": 1768204798, "lat": -23.5842941, "lon": -46.7388695}, {"type": "node", "id": 1768204799, "lat": -23.5843042, "lon": -46.7391944}, {"type": "node", "id": 1768204800, "lat": -23.5842902, "lon": -46.7397654}, {"type": "node", "id": 1768204804, "lat": -23.5843929, "lon": -46.7384264}, {"type": "node", "id": 1768204808, "lat": -23.584502, "lon": -46.7385801}, {"type": "node", "id": 1768204809, "lat": -23.584567, "lon": -46.7386873}, {"type": "node", "id": 1768204821, "lat": -23.5847323, "lon": -46.739007}, {"type": "node", "id": 1768204822, "lat": -23.5847457, "lon": -46.739115}, {"type": "node", "id": 1769088979, "lat": -23.5866399, "lon": -46.7369447, "tags": {"addr:city": "S\u00e3o Paulo", "addr:country": "BR", "addr:housenumber": "340;344;348", "addr:postcode": "05537-000", "addr:state": "SP", "addr:street": "Avenida Ministro Laudo Ferreira de Camargo", "alt_name": "Droga Raia Peri Peri", "amenity": "pharmacy", "brand": "Drogaria S\u00e3o Paulo", "brand:wikidata": "Q5308184", "brand:wikipedia": "en:Grupo DPSP", "contact:phone": "+55 11 3507-6286", "contact:website": "http://www.drogaraia.com.br", "healthcare": "pharmacy", "name": "Drogaria S\u00e3o Paulo", "opening_hours": "Mo-Fr 07:30-23:00;Sa 07:30-23:30;Su 07:30-23:30", "wheelchair": "yes"}}, {"type": "node", "id": 1769088980, "lat": -23.5870578, "lon": -46.7370841, "tags": {"amenity": "pharmacy", "wheelchair": "yes"}}, {"type": "node", "id": 1965972992, "lat": -23.5833023, "lon": -46.7377007}, {"type": "node", "id": 1965972993, "lat": -23.5834607, "lon": -46.7379206}, {"type": "node", "id": 1965972994, "lat": -23.5836302, "lon": -46.7379255}, {"type": "node", "id": 1965972995, "lat": -23.583762, "lon": -46.7371989}, {"type": "node", "id": 1965972996, "lat": -23.5838012, "lon": -46.7379485}, {"type": "node", "id": 1965972997, "lat": -23.5838436, "lon": -46.7372562}, {"type": "node", "id": 1965972998, "lat": -23.583931, "lon": -46.7379795}, {"type": "node", "id": 1965972999, "lat": -23.5840526, "lon": -46.7379927}, {"type": "node", "id": 1965973001, "lat": -23.584108, "lon": -46.7371816}, {"type": "node", "id": 1965973002, "lat": -23.5841865, "lon": -46.7379485}, {"type": "node", "id": 1965973003, "lat": -23.5842635, "lon": -46.737891}, {"type": "node", "id": 3773999567, "lat": -23.5847303, "lon": -46.7408941}, {"type": "node", "id": 3773999568, "lat": -23.5848325, "lon": -46.7408962}, {"type": "node", "id": 3773999569, "lat": -23.5847365, "lon": -46.740533}, {"type": "node", "id": 3773999570, "lat": -23.5848387, "lon": -46.7405351}, {"type": "node", "id": 3823814765, "lat": -23.5810239, "lon": -46.7357505}, {"type": "node", "id": 3823814766, "lat": -23.5812684, "lon": -46.7353538}, {"type": "node", "id": 3823814767, "lat": -23.5815363, "lon": -46.7365091}, {"type": "node", "id": 3823814768, "lat": -23.5818254, "lon": -46.7362655}, {"type": "node", "id": 4358485362, "lat": -23.5842111, "lon": -46.7382896}, {"type": "node", "id": 4358485364, "lat": -23.5844581, "lon": -46.7384853}, {"type": "node", "id": 6108010368, "lat": -23.5845474, "lon": -46.739467}, {"type": "node", "id": 6888746689, "lat": -23.5871579, "lon": -46.736601, "tags": {"amenity": "biergarten", "cuisine": "barbecue"}}, {"type": "node", "id": 6888746698, "lat": -23.5860553, "lon": -46.7376078, "tags": {"amenity": "bank", "atm": "yes", "brand": "Bradesco", "brand:wikidata": "Q806181", "brand:wikipedia": "en:Banco Bradesco", "name": "Bradesco", "wheelchair": "yes"}}, {"type": "way", "id": 165265046, "nodes": [1768204799, 1768204798, 1768204797, 1768204795, 1768204794, 1768204793, 4358485362, 1768204796, 1768204804, 4358485364, 1768204808, 1768204809, 1768204821, 1768204822, 6108010368, 1768204800, 1768204799], "tags": {"addr:housenumber": "1125", "addr:street": "Rua Augusto Farina", "amenity": "hospital", "emergency": "yes", "name": "Pronto Socorro Municipal Doutor Caetano Virg\u00edlio Neto", "operator": "Prefeitura do Munic\u00edpio de S\u00e3o Paulo"}}, {"type": "way", "id": 185908297, "nodes": [1965972993, 1965972994, 1965972996, 1965972998, 1965972999, 1965973002, 1965973003, 1965973001, 1965972997, 1965972995, 1965972992, 1965972993], "tags": {"addr:city": "S\u00e3o Paulo", "addr:housenumber": "800", "addr:postcode": "05593-090", "addr:street": "Rua Az\u00e9m Abdalla Az\u00e9m", "amenity": "fire_station", "name": "4\u00ba GB - S\u00e3o Paulo/1\u00ba PB Butant\u00e3"}}, {"type": "way", "id": 373983729, "nodes": [3773999567, 3773999568, 3773999570, 3773999569, 3773999567], "tags": {"addr:city": "S\u00e3o Paulo", "addr:housenumber": "176", "addr:street": "Rua Ari Aps", "amenity": "fuel", "brand": "BR", "brand:wikidata": "Q4836468", "brand:wikipedia": "pt:Vibra Energia", "building": "yes", "name": "BR", "roof:material": "metal"}}, {"type": "way", "id": 379035895, "nodes": [3823814768, 3823814767, 3823814765, 3823814766, 3823814768], "tags": {"amenity": "school", "name": "EMEF J\u00falio de Mesquita"}}]}