{"version": 0.6, "generator": "Overpass API 0.7.59 e21c39fe", "osm3s": {"timestamp_osm_base": "2023-01-30T21:08:37Z", "copyright": "The data included in this document is from www.openstreetmap.org. The data is made available under ODbL."}, "elements": [{"type": "node", "id": 4711946541, "lat": -23.1343931, "lon": -49.0543117}, {"type": "node", "id": 4711946542, "lat": -23.134486, "lon": -49.0542525}, {"type": "node", "id": 4711946543, "lat": -23.1346262, "lon": -49.0545125}, {"type": "node", "id": 4711946544, "lat": -23.1345333, "lon": -49.0545717}, {"type": "node", "id": 4711961616, "lat": -23.1346506, "lon": -49.05476}, {"type": "node", "id": 4711961617, "lat": -23.1346643, "lon": -49.0547454}, {"type": "node", "id": 4711961618, "lat": -23.1346834, "lon": -49.0547439}, {"type": "node", "id": 4711961619, "lat": -23.1346989, "lon": -49.054756}, {"type": "node", "id": 4711961620, "lat": -23.1347037, "lon": -49.0547762}, {"type": "node", "id": 4711961621, "lat": -23.1346954, "lon": -49.054795}, {"type": "node", "id": 4711961622, "lat": -23.1346779, "lon": -49.0548036}, {"type": "node", "id": 4711961623, "lat": -23.1346594, "lon": -49.0547979}, {"type": "node", "id": 4711961624, "lat": -23.1346486, "lon": -49.0547807}, {"type": "way", "id": 477904440, "nodes": [4711946541, 4711946542, 4711946543, 4711946544, 4711946541], "tags": {"addr:city": "Arandu", "addr:postcode": "18710-000", "addr:suburb": "Centro", "amenity": "place_of_worship", "building": "yes", "denomination": "roman_catholic", "name": "Par\u00f3quia Nossa Senhora da Boa Morte", "phone": "(14) 3766-1259", "religion": "christian"}}, {"type": "way", "id": 477906322, "nodes": [4711961616, 4711961617, 4711961618, 4711961619, 4711961620, 4711961621, 4711961622, 4711961623, 4711961624, 4711961616], "tags": {"addr:city": "Arandu", "addr:postcode": "18710-000", "addr:street": "Pra\u00e7a Dr. Jo\u00e3o Coutinho de Lima", "addr:suburb": "Centro", "building": "roof", "description": "Coreto tradicional", "leisure": "bandstand", "name": "Coreto"}}]}