{"version": 0.6, "generator": "Overpass API 0.7.59 e21c39fe", "osm3s": {"timestamp_osm_base": "2023-01-01T23:31:39Z", "copyright": "The data included in this document is from www.openstreetmap.org. The data is made available under ODbL."}, "elements": [{"type": "node", "id": 5501992245, "lat": -23.5151777, "lon": -46.3473877}, {"type": "node", "id": 5501992246, "lat": -23.5156125, "lon": -46.3472646}, {"type": "node", "id": 5501992247, "lat": -23.5155394, "lon": -46.3469574}, {"type": "node", "id": 5501992248, "lat": -23.5150921, "lon": -46.3470841}, {"type": "node", "id": 5952829415, "lat": -23.5130345, "lon": -46.3477654}, {"type": "node", "id": 5952829416, "lat": -23.513064, "lon": -46.3477546}, {"type": "node", "id": 5952829417, "lat": -23.5131058, "lon": -46.3477198}, {"type": "node", "id": 5952829418, "lat": -23.5130468, "lon": -46.347524}, {"type": "node", "id": 5952829419, "lat": -23.512973, "lon": -46.3475588}, {"type": "node", "id": 5952829420, "lat": -23.5128894, "lon": -46.3475696}, {"type": "node", "id": 5952829421, "lat": -23.5128894, "lon": -46.3476125}, {"type": "node", "id": 5952839697, "lat": -23.5152798, "lon": -46.3471603}, {"type": "node", "id": 5952839698, "lat": -23.5152974, "lon": -46.3472339}, {"type": "node", "id": 5952839699, "lat": -23.515151, "lon": -46.3472754}, {"type": "node", "id": 5952839700, "lat": -23.5151209, "lon": -46.3472053}, {"type": "way", "id": 572716259, "nodes": [5501992245, 5501992246, 5501992247, 5501992248, 5952839700, 5952839697, 5952839698, 5952839699, 5501992245], "tags": {"addr:city": "Po\u00e1", "addr:housenumber": "43", "addr:postcode": "08556-230", "addr:street": "Rua Bar\u00e3o de Juparan\u00e1", "addr:suburb": "Vila Medina", "amenity": "hospital", "building": "hospital", "contact:phone": "+55 11 4638 2505", "emergency": "yes", "healthcare": "hospital", "healthcare:speciality": "general", "name": "Hospital Municipal Doutor Guido Guida", "phone": "+55 11 4636 3200"}}, {"type": "way", "id": 630404404, "nodes": [5952829415, 5952829416, 5952829417, 5952829418, 5952829419, 5952829420, 5952829421, 5952829415], "tags": {"addr:city": "Po\u00e1", "addr:street": "Rua Visconde de Aguiar Toledo", "addr:suburb": "Jardim Medina", "amenity": "place_of_worship", "building": "church", "denomination": "roman_catholic", "name": "Comunidade Sagrada Fam\u00edlia", "religion": "christian", "service_times": "We, Sa 19:30; Su 18:00"}}]}