{"version": 0.6, "generator": "Overpass API 0.7.59 e21c39fe", "osm3s": {"timestamp_osm_base": "2023-01-30T20:07:43Z", "copyright": "The data included in this document is from www.openstreetmap.org. The data is made available under ODbL."}, "elements": [{"type": "node", "id": 2288244496, "lat": -23.3626975, "lon": -46.7470444, "tags": {"amenity": "bank", "atm": "yes", "brand": "Caixa Econ\u00f4mica Federal", "brand:wikidata": "Q835283", "name": "Caixa Econ\u00f4mica Federal"}}, {"type": "node", "id": 2288246246, "lat": -23.3634263, "lon": -46.7478732, "tags": {"amenity": "bank", "atm": "yes", "brand": "Ita\u00fa Unibanco", "brand:wikidata": "Q1424293", "name": "Ita\u00fa", "wheelchair": "yes"}}, {"type": "node", "id": 2288248396, "lat": -23.3608608, "lon": -46.7457493, "tags": {"amenity": "bank", "atm": "yes", "brand": "Bradesco", "brand:wikidata": "Q806181", "name": "Bradesco"}}, {"type": "node", "id": 2288249066, "lat": -23.3626534, "lon": -46.7466076, "tags": {"amenity": "bar"}}, {"type": "node", "id": 6489448668, "lat": -23.3646767, "lon": -46.7449249, "tags": {"amenity": "bench"}}, {"type": "node", "id": 6489448669, "lat": -23.3647261, "lon": -46.7448269, "tags": {"amenity": "bench"}}, {"type": "node", "id": 6489448810, "lat": -23.3642079, "lon": -46.7455372, "tags": {"amenity": "bench"}}, {"type": "node", "id": 6489448811, "lat": -23.3643266, "lon": -46.7454397, "tags": {"amenity": "bench"}}, {"type": "node", "id": 6489448812, "lat": -23.3644089, "lon": -46.7453751, "tags": {"amenity": "bench"}}, {"type": "node", "id": 6489448813, "lat": -23.3644645, "lon": -46.7453342, "tags": {"amenity": "bench"}}, {"type": "node", "id": 6489448814, "lat": -23.3643164, "lon": -46.7454879}, {"type": "node", "id": 6489448815, "lat": -23.3644925, "lon": -46.7453623}, {"type": "node", "id": 6489448816, "lat": -23.3645009, "lon": -46.7453562}, {"type": "node", "id": 6489448817, "lat": -23.3644816, "lon": -46.7454182}, {"type": "node", "id": 6489448825, "lat": -23.364139, "lon": -46.7455777}, {"type": "node", "id": 6489448826, "lat": -23.3641306, "lon": -46.7456476}, {"type": "node", "id": 6489448827, "lat": -23.3638756, "lon": -46.7458453}, {"type": "node", "id": 6489448828, "lat": -23.3638481, "lon": -46.7458033}, {"type": "node", "id": 6489448830, "lat": -23.3642201, "lon": -46.7455566}, {"type": "node", "id": 6489448831, "lat": -23.3642056, "lon": -46.7456291}, {"type": "node", "id": 6489448839, "lat": -23.3635363, "lon": -46.746142}, {"type": "node", "id": 6489448840, "lat": -23.3635399, "lon": -46.7460972}, {"type": "node", "id": 6489448841, "lat": -23.3638013, "lon": -46.7458849}, {"type": "node", "id": 6489448842, "lat": -23.3638619, "lon": -46.7458942}, {"type": "node", "id": 6489448849, "lat": -23.3626976, "lon": -46.7467462}, {"type": "node", "id": 6489448850, "lat": -23.3626336, "lon": -46.7467274}, {"type": "node", "id": 6489448861, "lat": -23.363109, "lon": -46.746439}, {"type": "node", "id": 6489448862, "lat": -23.3631151, "lon": -46.7463867}, {"type": "node", "id": 6489448893, "lat": -23.3626907, "lon": -46.7467577, "tags": {"amenity": "bench"}}, {"type": "node", "id": 6489448894, "lat": -23.3627847, "lon": -46.746689, "tags": {"amenity": "bench"}}, {"type": "node", "id": 6489448895, "lat": -23.3628551, "lon": -46.7466311, "tags": {"amenity": "bench"}}, {"type": "node", "id": 6489448896, "lat": -23.3629516, "lon": -46.7465624, "tags": {"amenity": "bench"}}, {"type": "way", "id": 691536130, "nodes": [6489448831, 6489448817, 6489448816, 6489448815, 6489448814, 6489448830, 6489448831], "tags": {"amenity": "parking"}}, {"type": "way", "id": 691536131, "nodes": [6489448828, 6489448827, 6489448826, 6489448825, 6489448828], "tags": {"amenity": "parking"}}, {"type": "way", "id": 691536132, "nodes": [6489448839, 6489448842, 6489448841, 6489448840, 6489448839], "tags": {"amenity": "parking"}}, {"type": "way", "id": 691536134, "nodes": [6489448850, 6489448849, 6489448861, 6489448862, 6489448850], "tags": {"amenity": "parking"}}]}